Nom,Type,Téléphone Principal,Tous les Téléphones,Email Principal,Tous les Emails,Site Web,Adresse,Code Postal,Ville,Pays,Latitude,Longitude,Note,Nombre d'avis,Niveau de Prix,Ouvert Maintenant,Description,Services,Commodités,Réseaux Sociaux,Nombre de Photos,Propriétaire,Établissement Vérifié,URL Google Maps
"AS FORMATION","Centre de formation","03 22 72 93 11","","","","","70 Rue des Jacobins03 22 72 93 11","","Amiens","FR","49.8904947","2.3017689","","0","","Non","","","","","0","","Non","https://www.google.com/maps/place/AS+FORMATION/data=!4m7!3m6!1s0x47e7844649733c9b:0xf891b65afc8fd4bc!8m2!3d49.8904947!4d2.3017689!16s%2Fg%2F1tf74vj_!19sChIJmzxzSUaE50cRvNSP_Fq2kfg?authuser=0&hl=fr&rclk=1"
"CFA IRFA-APISUP","Centre de formation continue","03 22 82 23 00","","","","","","","Amiens","FR","49.8941575","2.3035975","","0","","Non","","","","","0","","Non","https://www.google.com/maps/place/CFA+IRFA-APISUP/data=!4m7!3m6!1s0x47e784381c810001:0x4af277ec4f24bad!8m2!3d49.8941575!4d2.3035975!16s%2Fg%2F11fmddy2dm!19sChIJAQCBHDiE50cRrUvyxH4nrwQ?authuser=0&hl=fr&rclk=1"
"La Boite d'Animation et de Formation","Centre de formation","","","","","","12 Rue Frédéric Petit","","Amiens","FR","49.8927454","2.2904816","","0","","Non","","","","","0","","Non","https://www.google.com/maps/place/La+Boite+d%27Animation+et+de+Formation/data=!4m7!3m6!1s0x47e7852fbee38023:0x7b4453d89cd82cac!8m2!3d49.8927454!4d2.2904816!16s%2Fg%2F11v0jhr8vf!19sChIJI4Djvi-F50cRrCzYnNhTRHs?authuser=0&hl=fr&rclk=1"
"A.r.e.a.t","Centre de formation continue","06 26 37 82 22","","","","https://www.formation-addictologie.fr/","21 Rue Voiture06 26 37 82 22","","Amiens","FR","49.8864775","2.3013823","","0","","Non","","","","","0","","Non","https://www.google.com/maps/place/A.r.e.a.t/data=!4m7!3m6!1s0x47e78445ba88c739:0xccfd6e6be17bef41!8m2!3d49.8864775!4d2.3013823!16s%2Fg%2F11btmqhx7q!19sChIJOceIukWE50cRQe974Wtu_cw?authuser=0&hl=fr&rclk=1"
"BeEmositif Formations","Centre de formation continue","07 69 91 10 95","","partnerships@bookwhen.com","partnerships@bookwhen.com (contact); marketing@bookwhen.com (contact); jobs@bookwhen.com (contact)","https://bookwhen.com/fr/bmf80","68 Rue le Notre","","Amiens","FR","49.8879267","2.2943386","","0","","Non","","","","facebook: https://www.facebook.com/bookwhenhq; instagram: https://www.instagram.com/bookwhen; twitter: https://x.com/bookwhen","0","","Non","https://www.google.com/maps/place/BeEmositif+Formations/data=!4m7!3m6!1s0x47e7857281da871b:0x8e39925cf1f3789c!8m2!3d49.8879267!4d2.2943386!16s%2Fg%2F11fnxpp7dt!19sChIJG4fagXKF50cRnHjz8VySOY4?authuser=0&hl=fr&rclk=1"
"F&P Formations et Performances","Centre de formation","06 47 54 02 00","","","","","41 Rue Saint-Fuscien06 47 54 02 00","","Amiens","FR","49.8851513","2.3039864","","0","","Non","","","","","0","","Non","https://www.google.com/maps/place/F%26P+Formations+et+Performances/data=!4m7!3m6!1s0x47e7844f9b2b8a75:0x4fcfe3e8501cf941!8m2!3d49.8851513!4d2.3039864!16s%2Fg%2F12lkqr6bs!19sChIJdYorm0-E50cRQfkcUOjjz08?authuser=0&hl=fr&rclk=1"
"Trajectio Formation","Centre de formation","03 75 14 06 20","","","","http://www.instep-formation.fr/","55 Rue de Sully","","Amiens","FR","49.908742","2.2693383","","0","","Non","","","","","0","","Non","https://www.google.com/maps/place/Trajectio+Formation/data=!4m7!3m6!1s0x47e7833aa1588d17:0xaca4ea48a2583979!8m2!3d49.908742!4d2.2693383!16s%2Fg%2F11y12w623g!19sChIJF41YoTqD50cReTlYokjqpKw?authuser=0&hl=fr&rclk=1"
"Jedeon","Centre de formation continue","03 22 22 05 66","","","","","","","Amiens","FR","49.8986546","2.3048991","","0","","Non","","","","","0","","Non","https://www.google.com/maps/place/Jedeon/data=!4m7!3m6!1s0x47e7844648e9b711:0x3b68a700f1b20752!8m2!3d49.8986546!4d2.3048991!16s%2Fg%2F11btmqnvhj!19sChIJEbfpSEaE50cRUgey8QCnaDs?authuser=0&hl=fr&rclk=1"
"RH Reflex","Centre de formation","04 93 44 43 91","","","","https://rhreflex.com/centres-formation/amiens/","","","Amiens","FR","49.8907792","2.3080991","","0","","Non","","","","facebook: https://www.facebook.com/CentreDeFormation.Nice; instagram: https://www.instagram.com/rhreflex06; linkedin: https://linkedin.com/company/rhreflex; twitter: https://x.com/service-formation; youtube: https://www.youtube.com/channel/UCmYamxbC_uJQW9sNvUZrr6A","0","","Non","https://www.google.com/maps/place/RH+Reflex/data=!4m7!3m6!1s0x47e7858683d19a09:0x3b7955d437f83d0c!8m2!3d49.8907792!4d2.3080991!16s%2Fg%2F11wxsthzsg!19sChIJCZrRg4aF50cRDD34N9RVeTs?authuser=0&hl=fr&rclk=1"
"Rise (Sarl)","Centre de formation continue","03 22 71 71 00","","","","","70 Rue des Jacobins03 22 71 71 00","","Amiens","FR","49.8904193","2.3018047","","0","","Non","","","","","0","","Non","https://www.google.com/maps/place/Rise+%28Sarl%29/data=!4m7!3m6!1s0x47e784464eaf1923:0xf0027b7251c1451a!8m2!3d49.8904193!4d2.3018047!16s%2Fg%2F1vfp7jbq!19sChIJIxmvTkaE50cRGkXBUXJ7AvA?authuser=0&hl=fr&rclk=1"
"Formation gestes et postures PRAP TMS Troubles Musculo Squelettiques","Centre de formation","07 53 24 31 58","","","","https://www.alertis.fr/","26 Rue Jean-Jacques Mention","","Amiens","FR","49.9318264","2.2811892","","0","","Non","","","","","0","","Non","https://www.google.com/maps/place/Formation+gestes+et+postures+PRAP+TMS+Troubles+Musculo+Squelettiques/data=!4m7!3m6!1s0x47e787870f45fed3:0xa5f7db47a7b19f37!8m2!3d49.9318264!4d2.2811892!16s%2Fg%2F11wr3jvb71!19sChIJ0_5FD4eH50cRN5-xp0fb96U?authuser=0&hl=fr&rclk=1"
"Cook In","Centre de formation continue","03 22 95 76 83","","","","","27 Rue du Pinceau","","Amiens","FR","49.8877045","2.3169175","","0","","Non","","","","","0","","Non","https://www.google.com/maps/place/Cook+In/data=!4m7!3m6!1s0x47e785b363f0b2cf:0x1902e27de7460ff9!8m2!3d49.8877045!4d2.3169175!16s%2Fg%2F11b6d41ttw!19sChIJz7LwY7OF50cR-Q9G533iAhk?authuser=0&hl=fr&rclk=1"
"MOSTE FORMATION","Centre de formation","07 68 05 02 84","","","","https://moste.fr/","","","Amiens","FR","49.8829281","2.2829143","","0","","Non","","","","","0","","Non","https://www.google.com/maps/place/MOSTE+FORMATION/data=!4m7!3m6!1s0x47e785685fdc4a69:0x4a370b640fcfbf6f!8m2!3d49.8829281!4d2.2829143!16s%2Fg%2F11xvyqtjb9!19sChIJaUrcX2iF50cRb7_PD2QLN0o?authuser=0&hl=fr&rclk=1"
"Formation d'anglais","Centre de formation","","","","","","6 Rue Lamartine","","Amiens","FR","49.8914298","2.3045799","","0","","Non","","","","","0","","Non","https://www.google.com/maps/place/Formation+d%27anglais/data=!4m7!3m6!1s0x47e785f08be6f099:0xc674570c29c3d090!8m2!3d49.8914298!4d2.3045799!16s%2Fg%2F11wqrf3ll4!19sChIJmfDmi_CF50cRkNDDKQxXdMY?authuser=0&hl=fr&rclk=1"
"Formation Loi Alur","Centre de formation","06 72 30 36 79","","contact@formation-alur.com","contact@formation-alur.com (contact)","https://formation-alur.com/","","","Amiens","FR","49.9122151","2.3029426","","0","","Non","","","","facebook: https://www.facebook.com/Formation-Alur-1204619822948648; twitter: https://x.com/FormationAlur","0","","Non","https://www.google.com/maps/place/Formation+Loi+Alur/data=!4m7!3m6!1s0x47e6727542403029:0x34a70f6b55569d36!8m2!3d49.9122151!4d2.3029426!16s%2Fg%2F11c6_jbmw9!19sChIJKTBAQnVy5kcRNp1WVWsPpzQ?authuser=0&hl=fr&rclk=1"
"Synopsis Formation","Centre de formation","03 60 28 41 60","","","","https://synopsis-formation.fr/","","","Amiens","FR","49.9120979","2.3029233","","0","","Non","","","","","0","","Non","https://www.google.com/maps/place/Synopsis+Formation/data=!4m7!3m6!1s0x47e785961a2375df:0xe3296e9c3d9759fa!8m2!3d49.9120979!4d2.3029233!16s%2Fg%2F11y0ck9w84!19sChIJ33UjGpaF50cR-lmXPZxuKeM?authuser=0&hl=fr&rclk=1"
"DAVA (Dispositif Académique de Validation des Acquis)","Centre de formation continue","03 22 80 18 40","","","","https://monavenirpro-hdf.fr/notre-reseau/dava-amiens/","6 Ter Rue Caudron","","Amiens","FR","49.8904325","2.3028729","","0","","Non","","","","","0","","Non","https://www.google.com/maps/place/DAVA+%28Dispositif+Acad%C3%A9mique+de+Validation+des+Acquis%29/data=!4m7!3m6!1s0x47e78448ff2f1295:0x8e5a0a702d247733!8m2!3d49.8904325!4d2.3028729!16s%2Fg%2F1thx_3gv!19sChIJlRIv_0iE50cRM3ckLXAKWo4?authuser=0&hl=fr&rclk=1"
"Oriff-Pl Hauts de France Picardie","Centre de formation","03 22 47 84 01","","","","https://oriffpl-hdfpic.org/","","","Amiens","FR","49.8933618","2.3002746","","0","","Non","","","","facebook: https://www.facebook.com/profile.php; instagram: https://www.instagram.com/mplgrandouest; linkedin: https://www.linkedin.com/company/maison-des-professions-liberales-grand-ouest; twitter: https://twitter.com/MPL_GO; youtube: https://www.youtube.com/channel/UCSTpap68p1qxkTjjJ_A3EfQ","0","","Non","https://www.google.com/maps/place/Oriff-Pl+Hauts+de+France+Picardie/data=!4m7!3m6!1s0x47e7844bdd16f2c1:0xc0f48321ca23e214!8m2!3d49.8933618!4d2.3002746!16s%2Fg%2F1hcb8kntt!19sChIJwfIW3UuE50cRFOIjyiGD9MA?authuser=0&hl=fr&rclk=1"
"Centre de formation Point F","Centre de formation","03 22 92 03 53","","","","http://www.pointf.fr/","7 Rue des Cordeliers03 22 92 03 53","","Amiens","FR","49.8923181","2.2956195","","0","","Non","","","","","0","","Non","https://www.google.com/maps/place/Centre+de+formation+Point+F/data=!4m7!3m6!1s0x47e784408d18b8bf:0x35e2bd9dfd03475!8m2!3d49.8923181!4d2.2956195!16s%2Fg%2F1s04bm28h!19sChIJv7gYjUCE50cRdTTQ39krXgM?authuser=0&hl=fr&rclk=1"
"Picardie – Amiens","Centre de formation","","","","","","74 Rue de Poulainville","","Amiens","FR","49.9323311","2.2786304","","0","","Non","","","","","0","","Non","https://www.google.com/maps/place/Picardie+%E2%80%93+Amiens/data=!4m7!3m6!1s0x47e787000967e44d:0x3d4d23850f312792!8m2!3d49.9323311!4d2.2786304!16s%2Fg%2F11xymlgdms!19sChIJTeRnCQCH50cRkicxD4UjTT0?authuser=0&hl=fr&rclk=1"
"ORIENTACTION Amiens ""Sud"" - Bilan de compétences, Outplacement","Centre de formation","02 43 72 25 88","","","","https://cabinets-partenaires.orientaction-groupe.com/84-orientaction-amiens-sud-bilan-de-competences-bilan-d-orientation-vae-1er-rendez-vous-gratuit-et-sans-engagement?utm_source=gmb","70 Rue Laurendeau","","Amiens","FR","49.8861526","2.2933392","","0","","Non","","","","facebook: https://www.facebook.com/orientactionfrance; instagram: https://www.instagram.com/orientaction; linkedin: https://www.linkedin.com/company/orient-action; youtube: https://www.youtube.com/channel/UCpLtpNq7NdwZJ7a8MTt243Q","0","","Non","https://www.google.com/maps/place/ORIENTACTION+Amiens+%22Sud%22+-+Bilan+de+comp%C3%A9tences,+Outplacement/data=!4m7!3m6!1s0x47e785dc0772b817:0x7d452b1d2eaea4b7!8m2!3d49.8861526!4d2.2933392!16s%2Fg%2F11h_w43gxg!19sChIJF7hyB9yF50cRt6SuLh0rRX0?authuser=0&hl=fr&rclk=1"
"Cre2ado","Centre de formation continue","07 83 12 27 75","","","","https://www.cre2ado.com/contact","","","Amiens","FR","49.9011552","2.297947","","0","","Non","","","","","0","","Non","https://www.google.com/maps/place/Cre2ado/data=!4m7!3m6!1s0x47e7843c62a91203:0xd3187e9cdc9faf66!8m2!3d49.9011552!4d2.297947!16s%2Fg%2F11vf29yt8c!19sChIJAxKpYjyE50cRZq-f3Jx-GNM?authuser=0&hl=fr&rclk=1"
"CAFOC","Centre de formation","03 22 80 54 10","","","","","6ter Rue Caudron","","Amiens","FR","49.8901635","2.3040808","","0","","Non","","","","","0","","Non","https://www.google.com/maps/place/CAFOC/data=!4m7!3m6!1s0x47e78449c6b827f5:0x8a55ec54863c6f53!8m2!3d49.8901635!4d2.3040808!16s%2Fg%2F11cs1xjfht!19sChIJ9Se4xkmE50cRU288hlTsVYo?authuser=0&hl=fr&rclk=1"
"Centre de Formations Personnalisées - CFP","Centre de formation","03 22 43 52 40","","","","","60 Rue René Coty","","Amiens","FR","49.9090033","2.3119994","","0","","Non","","","","","0","","Non","https://www.google.com/maps/place/Centre+de+Formations+Personnalis%C3%A9es+-+CFP/data=!4m7!3m6!1s0x47e7842bee750119:0xdaf2d5837bec9e29!8m2!3d49.9090033!4d2.3119994!16s%2Fg%2F11f2y4ss21!19sChIJGQF17iuE50cRKZ7se4PV8to?authuser=0&hl=fr&rclk=1"
"CFA académique d'Amiens","Centre d'apprentissage","03 22 41 79 01","","","","http://www.cfa-ac-amiens.fr/","6ter Rue Caudron","","Amiens","FR","49.8901644","2.3040793","","0","","Non","","","","facebook: https://www.facebook.com/cfa.academiques.amiens.lille; instagram: https://www.instagram.com/cfaacademiques; linkedin: https://www.linkedin.com/company/cfa-academiques-amiens-lille; youtube: https://www.youtube.com/@monavenirpro-hauts-de-fran5875","0","","Non","https://www.google.com/maps/place/CFA+acad%C3%A9mique+d%27Amiens/data=!4m7!3m6!1s0x47e78449b96150c1:0x7809f3253dec0b5e!8m2!3d49.8901644!4d2.3040793!16s%2Fg%2F11gy0x0mv_!19sChIJwVBhuUmE50cRXgvsPSXzCXg?authuser=0&hl=fr&rclk=1"
"SUP DE SOPHRO Ecole de Sophrologie_RNCP d'Etat_Formation de Sophrologie et spécialisations à AMIENS","Centre de formation continue","03 72 39 58 36","","","","http://www.supdesophro.fr/","6 Rue Porion","","Amiens","FR","49.8937294","2.300641","","0","","Non","","","","","0","","Non","https://www.google.com/maps/place/SUP+DE+SOPHRO+Ecole+de+Sophrologie_RNCP+d%27Etat_Formation+de+Sophrologie+et+sp%C3%A9cialisations+%C3%A0+AMIENS/data=!4m7!3m6!1s0x47e78536dad9fc35:0x821bec1637d191fd!8m2!3d49.8937294!4d2.300641!16s%2Fg%2F11ncg_gg02!19sChIJNfzZ2jaF50cR_ZHRNxbsG4I?authuser=0&hl=fr&rclk=1"
"Phone Academy - Formation Réparation Téléphone","Centre de formation","07 69 40 53 84","","","","","66 Rue des Jacobins","","Amiens","FR","49.8903391","2.3014431","","0","","Non","","","","","0","","Non","https://www.google.com/maps/place/Phone+Academy+-+Formation+R%C3%A9paration+T%C3%A9l%C3%A9phone/data=!4m7!3m6!1s0x47e785ab8d3767f5:0xa46d269bf9a8c917!8m2!3d49.8903391!4d2.3014431!16s%2Fg%2F11vytn553g!19sChIJ9Wc3jauF50cRF8mo-ZsmbaQ?authuser=0&hl=fr&rclk=1"
"WebForce3 Amiens","Centre de formation","01 87 16 52 08","","","","https://www.wf3.fr/","1 Rue Lamartine","","Amiens","FR","49.8914945","2.3043623","","0","","Non","","","","","0","","Non","https://www.google.com/maps/place/WebForce3+Amiens/data=!4m7!3m6!1s0x47e785176ac273c9:0xb3620cfe1c138644!8m2!3d49.8914945!4d2.3043623!16s%2Fg%2F11sz5kbr0x!19sChIJyXPCaheF50cRRIYTHP4MYrM?authuser=0&hl=fr&rclk=1"
"EFMK","Centre de formation continue","06 13 40 69 12","","","","https://www.efmk.fr/","19 Rue du Général Domon06 13 40 69 12","","Amiens","FR","49.8881255","2.279434","","0","","Non","","","","","0","","Non","https://www.google.com/maps/place/EFMK/data=!4m7!3m6!1s0x47dd7da8f8cac8b3:0x19b51a2eec19da08!8m2!3d49.8881255!4d2.279434!16s%2Fg%2F11cs5_1g6c!19sChIJs8jK-Kh93UcRCNoZ7C4atRk?authuser=0&hl=fr&rclk=1"
"SECOURS 80","Formation aux premiers secours","06 21 73 61 23","","","","http://www.secours80.fr/","12 Rue Frédéric Petit","","Amiens","FR","49.8923983","2.2905935","5","1","","Non","","","","","0","","Non","https://www.google.com/maps/place/SECOURS+80/data=!4m7!3m6!1s0x47e7846adf9024c3:0x5e7c8d50d9f2e566!8m2!3d49.8923983!4d2.2905935!16s%2Fg%2F11cjg9c7dg!19sChIJwySQ32qE50cRZuXy2VCNfF4?authuser=0&hl=fr&rclk=1"
"Atelier des Apprenants - Centre de formation Amiens","Centre de formation","07 86 87 90 86","","contact@atelierdesapprenants.fr","contact@atelierdesapprenants.fr (contact); thepascal@mail.com (contact)","https://www.atelierdesapprenants.fr/","","","Amiens","FR","49.8745476","2.272537","5","614","","Non","","","","facebook: https://www.facebook.com/profile.php; instagram: https://www.instagram.com/atelierdesapprenants; linkedin: https://www.linkedin.com/company/atelierdesapprenants; youtube: https://www.youtube.com/@AtelierdesApprennants","0","","Non","https://www.google.com/maps/place/Atelier+des+Apprenants+-+Centre+de+formation+Amiens/data=!4m7!3m6!1s0x47e783a1b2edd5c1:0xafaefce9abc64785!8m2!3d49.8745476!4d2.272537!16s%2Fg%2F11rzws4lcq!19sChIJwdXtsqGD50cRhUfGq-n8rq8?authuser=0&hl=fr&rclk=1"
"PICARDIE FORMATION | Amiens 80 | Formation TAXI et VTC","Centre de formation continue","09 52 85 05 36","","","","https://picardieformation.fr/","11 Rue Picasso","","Amiens","FR","49.9168667","2.298665","5","119","","Non","","","","facebook: https://www.facebook.com/picardieformation; instagram: https://www.instagram.com/picardie_formation; youtube: https://www.youtube.com/@picardieformation8415","0","","Non","https://www.google.com/maps/place/PICARDIE+FORMATION+%7C+Amiens+80+%7C+Formation+TAXI+et+VTC/data=!4m7!3m6!1s0x47e7869e8c9cc911:0xa7b3bf6881ba6b2f!8m2!3d49.9168667!4d2.298665!16s%2Fg%2F11g0hp0y19!19sChIJEcmcjJ6G50cRL2u6gWi_s6c?authuser=0&hl=fr&rclk=1"
"MF master formations 25 rue riolan amiens 80000","Centre de formation","09 51 45 98 00","","","","https://www.master-formations.com/","25 rue riolan amiens 80000","","Amiens","FR","49.889086","2.316019","5","4","","Non","","","","facebook: https://www.facebook.com/masterformations; linkedin: https://linkedin.com/company/master-formations; twitter: https://twitter.com/gregoiremaster","0","","Non","https://www.google.com/maps/place/MF+master+formations+25+rue+riolan+amiens+80000/data=!4m7!3m6!1s0x47e78586eceb5a3b:0x9d17f46dbf1bfe8!8m2!3d49.889086!4d2.316019!16s%2Fg%2F11w2c_n2pk!19sChIJO1rr7IaF50cR6L_x20Z_0Qk?authuser=0&hl=fr&rclk=1"
"EFISIO","Centre de formation","09 80 80 18 60","","contact@efisio.fr","contact@efisio.fr (contact)","https://efisio.fr/","518 Rue Saint-Fuscien","","Amiens","FR","49.8681258","2.3075201","5","202","","Non","","","","facebook: https://www.facebook.com/efisioformation; instagram: https://www.instagram.com/efisioformation; linkedin: https://www.linkedin.com/company/efisio-formation; youtube: https://www.youtube.com/channel/UCSp7b_txidtMSDi-YxSELGw","0","","Non","https://www.google.com/maps/place/EFISIO/data=!4m7!3m6!1s0x47e7855a0eebd717:0x256a416220548d9d!8m2!3d49.8681258!4d2.3075201!16s%2Fg%2F11gnp3jv99!19sChIJF9frDlqF50cRnY1UIGJBaiU?authuser=0&hl=fr&rclk=1"
"Formationplus","Centre de formation continue","09 81 36 25 70","","","","","50 Rue Rigollot","","Amiens","FR","49.8869541","2.3099617","5","1","","Non","","","","","0","","Non","https://www.google.com/maps/place/Formationplus/data=!4m7!3m6!1s0x47e7844c179082b7:0x38276ef8b61e73db!8m2!3d49.8869541!4d2.3099617!16s%2Fg%2F11dyzdv742!19sChIJt4KQF0yE50cR23MetvhuJzg?authuser=0&hl=fr&rclk=1"
"EFCO - Amiens - École BTP","Centre de formation continue","03 92 23 32 03","","info@efco-formation.com","info@efco-formation.com (contact); sofyan.mcharek@efco-formation.comle (contact); sofyan.mcharek@efco-formation.com (contact)","https://efco-formation.com/","118-120, Rue de Sully","","Amiens","FR","49.9090215","2.2655124","5","1","","Non","","","","facebook: https://www.facebook.com/EFCOFormation; instagram: https://www.instagram.com/_efco_; linkedin: https://www.linkedin.com/company/10999022; youtube: https://www.youtube.com/channel/UCUJU4sYXqkyg_FHZt-Wwr0Q","0","","Non","https://www.google.com/maps/place/EFCO+-+Amiens+-+%C3%89cole+BTP/data=!4m7!3m6!1s0x47e78322cc46328d:0x2b744a20afae7582!8m2!3d49.9090215!4d2.2655124!16s%2Fg%2F11vwl914b1!19sChIJjTJGzCKD50cRgnWuryBKdCs?authuser=0&hl=fr&rclk=1"
"So OrigiNail Academy","Centre de formation","06 27 83 00 04","","","","http://so-originail-formation-ongles.fr/","70 Rue des Jacobins","","Amiens","FR","49.8901392","2.3014884","5","132","","Non","","","","","0","","Non","https://www.google.com/maps/place/So+OrigiNail+Academy/data=!4m7!3m6!1s0x47dda3e075ea2dd7:0x5814e9710a7288a6!8m2!3d49.8901392!4d2.3014884!16s%2Fg%2F11gv07d33j!19sChIJ1y3qdeCj3UcRpohyCnHpFFg?authuser=0&hl=fr&rclk=1"
"ANFH Picardie","Centre de formation continue","","","","","http://www.anfh.fr/picardie","","","Amiens","FR","49.8714678","2.2833086","5","6","","Non","","","","","0","","Non","https://www.google.com/maps/place/ANFH+Picardie/data=!4m7!3m6!1s0x47e7849ac1e8dd95:0xeb75fe827eff3353!8m2!3d49.8714678!4d2.2833086!16s%2Fg%2F11hbsvs7hb!19sChIJld3owZqE50cRUzP_foL-des?authuser=0&hl=fr&rclk=1"
"ActiROUTE - Amiens","Centre de formation continue","03 74 47 22 32","","","","https://www.actiroute.com/stage-de-recuperation-de-points/lieux-stage/auto-ecole-bienvenue-amiens/?utm_source=google&utm_medium=gmb&utm_campaign=actiroute-amiens-2398","","","Amiens","FR","49.8918911","2.3068356","5","3","","Non","","","","","0","","Non","https://www.google.com/maps/place/ActiROUTE+-+Amiens/data=!4m7!3m6!1s0x47e785b5df750327:0xcabe7063910ac800!8m2!3d49.8918911!4d2.3068356!16s%2Fg%2F11xl9fnvkt!19sChIJJwN137WF50cRAMgKkWNwvso?authuser=0&hl=fr&rclk=1"
"Signes & Cie","Centre de formation","","","","","","77 Rue Saint-Fuscien","","Amiens","FR","49.8821149","2.3046529","5","16","","Non","","","","","0","","Non","https://www.google.com/maps/place/Signes+%26+Cie/data=!4m7!3m6!1s0x47e784503d16672f:0x8dcc766bc99bc95f!8m2!3d49.8821149!4d2.3046529!16s%2Fg%2F11cr_zf74m!19sChIJL2cWPVCE50cRX8mbyWt2zI0?authuser=0&hl=fr&rclk=1"
"ActiROUTE - Amiens","Centre de formation continue","03 74 47 22 32","","","","https://www.actiroute.com/stage-de-recuperation-de-points/lieux-stage/comfort-hotel-amiens-nord-amiens/?utm_source=google&utm_medium=gmb&utm_campaign=actiroute-amiens-2138","","","Amiens","FR","49.9249992","2.3045435","5","2","","Non","","","","","0","","Non","https://www.google.com/maps/place/ActiROUTE+-+Amiens/data=!4m7!3m6!1s0x47e787a2359c5e2d:0x3f13999d8e3cbd6d!8m2!3d49.9249992!4d2.3045435!16s%2Fg%2F11xm_mmgmf!19sChIJLV6cNaKH50cRbb08jp2ZEz8?authuser=0&hl=fr&rclk=1"
"inlingua","École de langues étrangères","03 22 52 15 05","","","","https://www.inlinguapicardie.com/","3 Rue Caudron","","Amiens","FR","49.8905168","2.3029482","5","12","","Non","","","","facebook: https://www.facebook.com/inlinguapicardie; instagram: https://www.instagram.com/inlingua_picardie; linkedin: https://www.linkedin.com/company/inlingua-picardie; twitter: https://twitter.com/cards","0","","Non","https://www.google.com/maps/place/inlingua/data=!4m7!3m6!1s0x47e7844631ebe1dd:0x90c40e47a7f9420d!8m2!3d49.8905168!4d2.3029482!16s%2Fg%2F11c57d18kj!19sChIJ3eHrMUaE50cRDUL5p0cOxJA?authuser=0&hl=fr&rclk=1"
"HB Perf","Centre de coaching","07 83 19 48 04","","","","https://jeboostemaconfiance.fr/","44 Rue de la République","","Amiens","FR","49.8909641","2.2961769","5","22","","Non","","","","","0","","Non","https://www.google.com/maps/place/HB+Perf/data=!4m7!3m6!1s0x47e7850b991731c3:0x7867197ae291e8ea!8m2!3d49.8909641!4d2.2961769!16s%2Fg%2F11h5n51gv5!19sChIJwzEXmQuF50cR6uiR4noZZ3g?authuser=0&hl=fr&rclk=1"
"MIAGE Amiens","Université publique","03 22 82 88 07","","","","https://miage-amiens.fr/","33 Rue St Leu","","Amiens","FR","49.8990533","2.2982626","5","1","","Non","","","","","0","","Non","https://www.google.com/maps/place/MIAGE+Amiens/data=!4m7!3m6!1s0x47e78439629a5d9b:0x3e7a052398f5b90a!8m2!3d49.8990533!4d2.2982626!16s%2Fg%2F11fkds9hfb!19sChIJm12aYjmE50cRCrn1mCMFej4?authuser=0&hl=fr&rclk=1"
"Alpha Picardie","Organisme à but non lucratif","03 22 92 68 76","","contact@alpha-picardie.fr","contact@alpha-picardie.fr (contact); 76contact@alpha-picardie.fr (contact)","https://www.alpha-picardie.fr/","50 Rue Riolan","","Amiens","FR","49.8894457","2.3127578","5","4","","Non","","","","facebook: https://www.facebook.com/alpha.picardie; instagram: https://www.instagram.com/alphapicardie; linkedin: https://www.linkedin.com/company/alpha-picardie","0","","Non","https://www.google.com/maps/place/Alpha+Picardie/data=!4m7!3m6!1s0x47e7844b0a4dfd61:0x4850f5e92f1725ee!8m2!3d49.8894457!4d2.3127578!16s%2Fg%2F1tjl56zq!19sChIJYf1NCkuE50cR7iUXL-n1UEg?authuser=0&hl=fr&rclk=1"
"IFP FRANCE - Institut de la formation professionnelle","Centre de formation à distance","09 77 19 70 99","","","","https://www.formation-haccp-par-internet.fr/","","","Amiens","FR","49.8939898","2.3031331","5","1","","Non","","","","","0","","Non","https://www.google.com/maps/place/IFP+FRANCE+-+Institut+de+la+formation+professionnelle/data=!4m7!3m6!1s0x47e7850f8e4be771:0x147b5c609e4d3dd8!8m2!3d49.8939898!4d2.3031331!16s%2Fg%2F11h6s03s6_!19sChIJcedLjg-F50cR2D1NnmBcexQ?authuser=0&hl=fr&rclk=1"
"FUGA FORMATION - CENTRE DE FORMATION","Centre de formation","03 60 62 01 80","","aureliaberquier@fugaformation.fr","aureliaberquier@fugaformation.fr (contact)","http://fugaformation.fr/","29 Rue de Poulainville","","Amiens","FR","49.9293289","2.2722561","4.9","72","","Non","","","","facebook: https://www.facebook.com/fugaformation; linkedin: https://www.linkedin.com/company/fuga-formation","0","","Non","https://www.google.com/maps/place/FUGA+FORMATION+-+CENTRE+DE+FORMATION/data=!4m7!3m6!1s0x47e781b1431f73c9:0xc871a81c2b2b53f9!8m2!3d49.9293289!4d2.2722561!16s%2Fg%2F11j23ph50v!19sChIJyXMfQ7GB50cR-VMrKxyoccg?authuser=0&hl=fr&rclk=1"
"Formation incendie extincteur Amiens - Alertis","Centre de formation continue","04 78 90 46 30","","info@alertis.fr","info@alertis.fr (contact); info@alertis.frl (contact)","https://www.alertis.fr/formation-incendie-manipulation-des-extincteurs-amiens/","26 Rue Jean-Jacques Mention","","Amiens","FR","49.9318264","2.2811892","4.9","14","","Non","","","","facebook: https://www.facebook.com/alertis; instagram: https://www.instagram.com/alertis_formation; linkedin: https://www.linkedin.com/company/alertis-formation-securite-incendie; youtube: https://www.youtube.com/user/alertis69","0","","Non","https://www.google.com/maps/place/Formation+incendie+extincteur+Amiens+-+Alertis/data=!4m7!3m6!1s0x47e787e03494aadf:0xeee2e5cfab00e7be!8m2!3d49.9318264!4d2.2811892!16s%2Fg%2F11m5cs2sl2!19sChIJ36qUNOCH50cRvucAq8_l4u4?authuser=0&hl=fr&rclk=1"
"Wall Street English Amiens","École de langue","03 22 91 74 21","","","","https://wallstreetenglish.fr/ecoles/cours-anglais-amiens/?utm_source=googlemybusiness&utm_medium=organic&utm_campaign=descriptionpage&utm_content=lienprincipal&src_typ=SEO&src_det=SEO_Google_My_Business","6 Rue Lamartine","","Amiens","FR","49.8914298","2.3045799","4.9","152","","Non","","","","facebook: https://www.facebook.com/WallStreetEnglishFrance; instagram: https://www.instagram.com/wallstreetenglish.france; linkedin: https://www.linkedin.com/company/wall-street-english-France; youtube: https://www.youtube.com/user/wallstreetinstitute","0","","Non","https://www.google.com/maps/place/Wall+Street+English+Amiens/data=!4m7!3m6!1s0x47e784486fc66c3b:0xd93b2893de192f05!8m2!3d49.8914298!4d2.3045799!16s%2Fg%2F12hnzsg1z!19sChIJO2zGb0iE50cRBS8Z3pMoO9k?authuser=0&hl=fr&rclk=1"
"École Terrade Amiens - Formation Esthétique, Coiffure, Maquillage & Spa","Centre de formation","03 22 99 09 09","","amiens@ecoleterrade.com","amiens@ecoleterrade.com (contact); emailcontact@ecoleterrade.com (contact); fanny.coupin@ecoleterrade.com (contact)","https://ecoleterrade.com/ecoles/hauts-de-france/amiens/campus-amiens/?utm_campaign=GoogleMyBusiness&utm_medium=Local&utm_source=Google&utm_content=Site+Web","41 Rue Jules Barni","","Amiens","FR","49.889326","2.3104881","4.9","263","","Non","","","","facebook: https://www.facebook.com/ecoleterrade; instagram: https://www.instagram.com/p; youtube: https://www.youtube.com/@EcoleTerrade","0","","Non","https://www.google.com/maps/place/%C3%89cole+Terrade+Amiens+-+Formation+Esth%C3%A9tique,+Coiffure,+Maquillage+%26+Spa/data=!4m7!3m6!1s0x47e785ed89ae5865:0xb32a4ec7ab5b30b3!8m2!3d49.889326!4d2.3104881!16s%2Fg%2F11rcmpcfq7!19sChIJZViuie2F50cRszBbq8dOKrM?authuser=0&hl=fr&rclk=1"
"Alésia Formation Amiens - Ecole de Commerce et de Gestion","Centre d'apprentissage","09 70 24 95 10","","","","https://www.alesia-formation.fr/centres/amiens","","","Amiens","FR","49.874347","2.2834958","4.8","13","","Non","","","","","0","","Non","https://www.google.com/maps/place/Al%C3%A9sia+Formation+Amiens+-+Ecole+de+Commerce+et+de+Gestion/data=!4m7!3m6!1s0x47e7851528b38b17:0x42014ee673523b99!8m2!3d49.874347!4d2.2834958!16s%2Fg%2F11kpy2kj02!19sChIJF4uzKBWF50cRmTtSc-ZOAUI?authuser=0&hl=fr&rclk=1"
"LC Conseil Formation","Centre de formation continue","03 22 52 12 75","","lc.conseil80@orange.fr","lc.conseil80@orange.fr (contact)","http://www.lcconseil.net/","349 Rue Fbg de Hem","","Amiens","FR","49.9053071","2.2724335","4.8","8","","Non","","","","facebook: https://www.facebook.com/people; linkedin: https://www.linkedin.com/in/lc-conseil-carmen-lecomte-37471979","0","","Non","https://www.google.com/maps/place/LC+Conseil+Formation/data=!4m7!3m6!1s0x47e78407c974f595:0x575fb4de89d31aee!8m2!3d49.9053071!4d2.2724335!16s%2Fg%2F11dz1kdzxk!19sChIJlfV0yQeE50cR7hrTid60X1c?authuser=0&hl=fr&rclk=1"
"AFTRAL Amiens (Longueau)","Centre de formation continue","","","","","https://www.aftral.com/centre/aftral-amiens-longueau/","5 Rue Lucette Bonard","","Amiens","FR","49.8762228","2.3621162","4.8","905","","Non","","","","facebook: https://www.facebook.com/pages; instagram: https://www.instagram.com/aftral_formation; linkedin: https://www.linkedin.com/company/aftral; twitter: https://twitter.com/aftral; youtube: https://www.youtube.com/@AFTRAL_ISTELI","0","","Non","https://www.google.com/maps/place/AFTRAL+Amiens+%28Longueau%29/data=!4m7!3m6!1s0x47e7814c68ad7a1b:0xad2ed4cf90da81a3!8m2!3d49.8762228!4d2.3621162!16s%2Fg%2F11bxjr32vr!19sChIJG3qtaEyB50cRo4HakM_ULq0?authuser=0&hl=fr&rclk=1"
"Pigier Amiens","Centre de formation","03 27 32 90 00","","","","https://www.pigier.com/ecole-commerce-amiens","","","Amiens","FR","49.8604755","2.2807417","4.8","55","","Non","","","","","0","","Non","https://www.google.com/maps/place/Pigier+Amiens/data=!4m7!3m6!1s0x47e784408cdf9321:0xc24281f2c80e9017!8m2!3d49.8604755!4d2.2807417!16s%2Fg%2F11dz3w_mqs!19sChIJIZPfjECE50cRF5AOyPKBQsI?authuser=0&hl=fr&rclk=1"
"Groupe Alternance Amiens / CFA / Formations en alternance BAC à BAC+5 - Amiens (80)","Centre de formation","03 22 72 31 12","","","","https://www.groupe-alternance.com/ecoles/amiens/?utm_source=google&utm_medium=organic&utm_campaign=GMB_amiens","","","Amiens","FR","49.8604946","2.2825138","4.8","108","","Non","","","","","0","","Non","https://www.google.com/maps/place/Groupe+Alternance+Amiens+%2F+CFA+%2F+Formations+en+alternance+BAC+%C3%A0+BAC%2B5+-+Amiens+%2880%29/data=!4m7!3m6!1s0x47e7855d482e1693:0x4f9ba9e227a168f1!8m2!3d49.8604946!4d2.2825138!16s%2Fg%2F11qh7m0mzx!19sChIJkxYuSF2F50cR8WihJ-Kpm08?authuser=0&hl=fr&rclk=1"
"IDPR Saint-Leu","Auto-école","03 22 44 31 86","","idpr.santerre@idpr.fr","idpr.santerre@idpr.fr (contact)","https://www.idpr.fr/","13 Rue St Leu","","Amiens","FR","49.8972911","2.300548","4.7","26","","Non","","","","facebook: https://www.facebook.com/plugins","0","","Non","https://www.google.com/maps/place/IDPR+Saint-Leu/data=!4m7!3m6!1s0x47e785da87547ef5:0xebda19e5355c2bb9!8m2!3d49.8972911!4d2.300548!16s%2Fg%2F11vtbqx9s9!19sChIJ9X5Uh9qF50cRuStcNeUZ2us?authuser=0&hl=fr&rclk=1"
"École du Cirque Jules Verne - centre de formation préparatoire aux écoles supérieures de cirque","Établissement d'enseignement professionnel","03 22 72 11 68","","contact@cirquejulesverne.fr","contact@cirquejulesverne.fr (contact)","http://www.cirquejulesverne.fr/","12 Rue Albert Roze","","Amiens","FR","49.8915481","2.2934613","4.7","3","","Non","","","","facebook: https://www.facebook.com/cirquejulesverne; instagram: https://www.instagram.com/cirquejulesverne; youtube: https://www.youtube.com/channel/UCt94S7L5ys5HiMJXZIfN8Rw","0","","Non","https://www.google.com/maps/place/%C3%89cole+du+Cirque+Jules+Verne+-+centre+de+formation+pr%C3%A9paratoire+aux+%C3%A9coles+sup%C3%A9rieures+de+cirque/data=!4m7!3m6!1s0x47e7844037b133e7:0x20e1b3d9a2e4a644!8m2!3d49.8915481!4d2.2934613!16s%2Fg%2F11b6nj_xtb!19sChIJ5zOxN0CE50cRRKbkotmz4SA?authuser=0&hl=fr&rclk=1"
"Euroformation Amiens","Auto-école","03 22 91 38 71","","contact@euroformationamiens.com","contact@euroformationamiens.com (contact); cefur@wanadoo.fr (contact)","http://euroformationamiens.com/","","","Amiens","FR","49.8954334","2.3054995","4.7","621","","Non","","","","facebook: https://www.facebook.com/amiens.euroformation; instagram: https://www.instagram.com/p","0","","Non","https://www.google.com/maps/place/Euroformation+Amiens/data=!4m7!3m6!1s0x47e7844a60bab8b5:0xdeff1d33f82e035d!8m2!3d49.8954334!4d2.3054995!16s%2Fg%2F1tdl5fzc!19sChIJtbi6YEqE50cRXQMu-DMd_94?authuser=0&hl=fr&rclk=1"
"IRFA APISUP","Centre de formation","03 22 82 80 60","","contact@irfa-apisup.fr","contact@irfa-apisup.fr (contact); contact@irfa-apisup.frle (contact); contact@irfa-apisup.fr2.conditions (contact)","http://www.irfa-apisup.fr/","55 Rue de Sully","","Amiens","FR","49.9089712","2.2717794","4.6","9","","Non","","","","facebook: https://www.facebook.com/irfaapisup80; instagram: https://www.instagram.com/irfa_apisup; linkedin: https://www.linkedin.com/company/irfa-apisup; youtube: https://www.youtube.com/@irfaapisup1693","0","","Non","https://www.google.com/maps/place/IRFA+APISUP/data=!4m7!3m6!1s0x47e7844619e28fdb:0x1c10cc6dadb2ca5d!8m2!3d49.9089712!4d2.2717794!16s%2Fg%2F11c70b7660!19sChIJ24_iGUaE50cRXcqyrW3MEBw?authuser=0&hl=fr&rclk=1"
"Grimp'A Bloc","Escalade","03 65 89 50 27","","contact@grimpabloc.fr","contact@grimpabloc.fr (contact)","https://www.grimpabloc.fr/","54 Rue du Château MilanFerme bientôt ⋅ 22:30 ⋅ Ouvre à 09:30 sam.","","Amiens","FR","49.9024591","2.2857326","4.6","295","","Non","","","","facebook: https://www.facebook.com/grimpabloc; instagram: https://www.instagram.com/grimpabloc; youtube: https://www.youtube.com/@grimpabloc","0","","Non","https://www.google.com/maps/place/Grimp%27A+Bloc/data=!4m7!3m6!1s0x47e784749757fc25:0xdcfdd820961be7de!8m2!3d49.9024591!4d2.2857326!16s%2Fg%2F1hm292yrp!19sChIJJfxXl3SE50cR3ucbliDY_dw?authuser=0&hl=fr&rclk=1"
"AIDEQ Amiens","Centre de formation continue","06 24 90 24 33","","information@aideq.fr","information@aideq.fr (contact); aideq.picardie@gmail.com (contact)","http://www.aideq.fr/","","","Amiens","FR","49.8656711","2.334285","4.6","52","","Non","","","","facebook: https://www.facebook.com/francine.bukuru.9674; instagram: https://www.instagram.com/leaaideq; linkedin: https://linkedin.com/in/aideq-aideq-042054206; twitter: https://twitter.com/AIDEQ10; youtube: https://www.youtube.com/user/Annesaph","0","","Non","https://www.google.com/maps/place/AIDEQ+Amiens/data=!4m7!3m6!1s0x47e785b3b1c8c67d:0xa58974c9f02fdb3f!8m2!3d49.8656711!4d2.334285!16s%2Fg%2F11j2yqkktc!19sChIJfcbIsbOF50cRP9sv8Ml0iaU?authuser=0&hl=fr&rclk=1"
"Translobat Formation City'Pro","Centre de formation continue","03 22 44 69 74","","","","https://www.translobatformation-citypro.com/","80000, 19 Rue des Archicamps","","Amiens","FR","49.9264526","2.2717132","4.6","39","","Non","","","","","0","","Non","https://www.google.com/maps/place/Translobat+Formation+City%27Pro/data=!4m7!3m6!1s0x47e7814c234e3983:0x5adcc3c30d7baa8f!8m2!3d49.9264526!4d2.2717132!16s%2Fg%2F11btlvk_43!19sChIJgzlOI0yB50cRj6p7DcPD3Fo?authuser=0&hl=fr&rclk=1"
"EFCO - Amiens","Centre de formation continue","03 92 23 32 03","","","","https://www.efco-formation.com/","118-120, Rue de Sully","","Amiens","FR","49.911399","2.264774","4.5","63","","Non","","","","facebook: https://www.facebook.com/EFCOFormation; instagram: https://www.instagram.com/_efco_; linkedin: https://www.linkedin.com/company/10999022; youtube: https://www.youtube.com/channel/UCUJU4sYXqkyg_FHZt-Wwr0Q","0","","Non","https://www.google.com/maps/place/EFCO+-+Amiens/data=!4m7!3m6!1s0x47e785eea02626ff:0xadb6324022de4cf6!8m2!3d49.911399!4d2.264774!16s%2Fg%2F11fj1_w1v2!19sChIJ_yYmoO6F50cR9kzeIkAytq0?authuser=0&hl=fr&rclk=1"
"Amiens Sporting Club","Centre de formation","03 22 22 23 30","","","","http://www.amiensfootball.com/","400 Rue Colbert03 22 22 23 30","","Amiens","FR","49.8907051","2.2683811","4.5","14","","Non","","","","facebook: https://www.facebook.com/AmiensSC; instagram: https://www.instagram.com/amiensscfootball; twitter: https://twitter.com/AmiensSC","0","","Non","https://www.google.com/maps/place/Amiens+Sporting+Club/data=!4m7!3m6!1s0x47e78475afafeb5f:0x60f452e4a5832be0!8m2!3d49.8907051!4d2.2683811!16s%2Fg%2F1tdydz2k!19sChIJX-uvr3WE50cR4CuDpeRS9GA?authuser=0&hl=fr&rclk=1"
"Atelier Canopé 80 - Amiens","Centre de formation continue","03 22 71 41 60","","contact.dt-hdf@reseau-canope.fr","contact.dt-hdf@reseau-canope.fr (contact); herve.chatelain@reseau-canope.fr (contact); contact.atelier80@reseau-canope.fr (contact); partenariats@reseau-canope.fr (contact); dpo@reseau-canope.fr (contact)","https://www.reseau-canope.fr/academie-damiens/atelier-canope-80-amiens.html/","45 Rue St Leu","","Amiens","FR","49.8989039","2.3002721","4.5","10","","Non","","","","facebook: https://www.facebook.com/canope80; instagram: https://www.instagram.com/reseau_canope; linkedin: https://www.linkedin.com/company/canope; twitter: https://twitter.com/reseau_canope","0","","Non","https://www.google.com/maps/place/Atelier+Canop%C3%A9+80+-+Amiens/data=!4m7!3m6!1s0x47e7843bdc1bfbe9:0xf9ac5e7f236b0e97!8m2!3d49.8989039!4d2.3002721!16s%2Fg%2F1wbfzqvy!19sChIJ6fsb3DuE50cRlw5rI39erPk?authuser=0&hl=fr&rclk=1"
"Centre Culturel Léo Lagrange","Centre culturel","03 22 92 39 11","","","","http://ccll-amiens.fr/","","","Amiens","FR","49.8977267","2.2968853","4.4","18","","Non","","","","facebook: https://www.facebook.com/ccleolagrangeamiens; instagram: https://www.instagram.com/centreculturelleolagrange; youtube: https://www.youtube.com/channel/UC6VZGDn_BTbFmCa8XMIUuBg","0","","Non","https://www.google.com/maps/place/Centre+Culturel+L%C3%A9o+Lagrange/data=!4m7!3m6!1s0x47e7843e960d2a35:0x8cc5615fecad2a3c!8m2!3d49.8977267!4d2.2968853!16s%2Fg%2F1vntj6hp!19sChIJNSoNlj6E50cRPCqt7F9hxYw?authuser=0&hl=fr&rclk=1"
"Espace Dewailly","Centre de formation continue","03 22 97 40 40","","","","http://www.amiens.fr/","","","Amiens","FR","49.892839","2.2906795","4.3","95","","Non","","","","facebook: https://www.facebook.com/AmiensMetropoleOfficiel; instagram: https://www.instagram.com/amiensmetropoleofficiel; twitter: https://twitter.com/amiensmetropole; youtube: https://www.youtube.com/user/amiensville","0","","Non","https://www.google.com/maps/place/Espace+Dewailly/data=!4m7!3m6!1s0x47e7846ac6200261:0x71b9112be26543ce!8m2!3d49.892839!4d2.2906795!16s%2Fg%2F11bxc554db!19sChIJYQIgxmqE50cRzkNl4isRuXE?authuser=0&hl=fr&rclk=1"
"Stych Auto-École Amiens","Centre de formation à distance","03 22 43 48 44","","","","","153 Rue Jules Barni","","Amiens","FR","49.887839","2.314292","4.2","59","","Non","","","","","0","","Non","https://www.google.com/maps/place/Stych+Auto-%C3%89cole+Amiens/data=!4m7!3m6!1s0x83d7a0509373f6bb:0xfcf9e4e3fb7dd2bb!8m2!3d49.887839!4d2.314292!16s%2Fg%2F11s986rnwt!19sChIJu_Zzk1Cg14MRu9J9--Pk-fw?authuser=0&hl=fr&rclk=1"
"GIP FORINVAL","Centre de formation","03 22 80 54 16","","contact@monavenirpro-hdf.fr","contact@monavenirpro-hdf.fr (contact)","https://monavenirpro-hdf.fr/notre-reseau/gip-forinval/","6 ter Rue Caudron","","Amiens","FR","49.8904325","2.3028729","4.2","19","","Non","","","","","0","","Non","https://www.google.com/maps/place/GIP+FORINVAL/data=!4m7!3m6!1s0x47e7844886e0db35:0x47d025d1d6e7b5f2!8m2!3d49.8904325!4d2.3028729!16s%2Fg%2F11ggsrc40_!19sChIJNdvghkiE50cR8rXn1tEl0Ec?authuser=0&hl=fr&rclk=1"
"Interfor - Centre De Formation Amiens","Centre de formation","03 22 82 00 00","","","","https://interfor.fr/","2 Rue Vadé","","Amiens","FR","49.893985","2.3074884","4.1","126","","Non","","","","","0","","Non","https://www.google.com/maps/place/Interfor+-+Centre+De+Formation+Amiens/data=!4m7!3m6!1s0x47e7843638221e9b:0xe9aa6e185acadfa1!8m2!3d49.893985!4d2.3074884!16s%2Fg%2F1x6q127_!19sChIJmx4iODaE50cRod_KWhhuquk?authuser=0&hl=fr&rclk=1"
"Retravailler Nord Picardie (site d'Amiens)","Centre d'emploi","03 22 22 37 79","","","","https://retravailler-np.org/","64 bis Rue du Vivier","","Amiens","FR","49.893057","2.3090839","4.1","34","","Non","","","","","0","","Non","https://www.google.com/maps/place/Retravailler+Nord+Picardie+%28site+d%27Amiens%29/data=!4m7!3m6!1s0x47e78449e4ccfb8d:0x3f3f49f48c5f8bd4!8m2!3d49.893057!4d2.3090839!16s%2Fg%2F1tdvz69y!19sChIJjfvM5EmE50cR1ItfjPRJPz8?authuser=0&hl=fr&rclk=1"
"La Manu - Campus Amiens","Centre de formation continue","09 86 27 17 04","","contact-amiens@lamanu.fr","contact-amiens@lamanu.fr (contact); contact-lehavre@lamanu.fr (contact); contact-compiegne@lamanu.fr (contact); contact-chartres@lamanu.fr (contact); contact-campusvirtuel@lamanu.fr (contact); contact@lamanu.fr (contact)","https://lamanu.fr/","80 Rue de la Vallée09 86 27 17 04","","Amiens","FR","49.8911659","2.311068","4","14","","Non","","","","facebook: https://www.facebook.com/LaManuFormation; instagram: https://www.instagram.com/lamanuformation; youtube: https://www.youtube.com/channel/UCEs8-w_WXp1gVBLjZIVRJKw","0","","Non","https://www.google.com/maps/place/La+Manu+-+Campus+Amiens/data=!4m7!3m6!1s0x47e7857c0e87f5fb:0x37fb21b742d12b66!8m2!3d49.8911659!4d2.311068!16s%2Fg%2F11fptyzr59!19sChIJ-_WHDnyF50cRZivRQrch-zc?authuser=0&hl=fr&rclk=1"
"CFAI 8002","Centre de formation continue","03 22 54 64 03","","","","","74 Rue de Poulainville03 22 54 64 03","","Amiens","FR","49.9328879","2.2781347","4","1","","Non","","","","","0","","Non","https://www.google.com/maps/place/CFAI+8002/data=!4m7!3m6!1s0x47e786c7fb444399:0x955fd7b22bebad17!8m2!3d49.9328879!4d2.2781347!16s%2Fg%2F1tfvygl8!19sChIJmUNE-8eG50cRF63rK7LXX5U?authuser=0&hl=fr&rclk=1"
"Centre régional de formation professionnelle de la pharmacie","Centre de formation","03 22 97 92 20","","","","https://www.crefpharmacie.org/","","","Amiens","FR","49.8734701","2.2833395","4","7","","Non","","","","facebook: https://www.facebook.com/pages","0","","Non","https://www.google.com/maps/place/Centre+r%C3%A9gional+de+formation+professionnelle+de+la+pharmacie/data=!4m7!3m6!1s0x47e78489e1b45db5:0x7734a5f44ac736c0!8m2!3d49.8734701!4d2.2833395!16s%2Fg%2F1tgpmbq1!19sChIJtV204YmE50cRwDbHSvSlNHc?authuser=0&hl=fr&rclk=1"
"Ceméa de Picardie","Centre de formation","03 22 71 79 00","","contact@cemea-picardie.fr","contact@cemea-picardie.fr (contact); mon.adresse@mail.com (contact); 00contact@cemea-picardie.fr (contact); u003econtact@cemea-picardie.fr (contact); u003eftosolini@cemea-picardie.fr (contact); nponsart@cemea-picardie.fr (contact)","http://www.cemea-picardie.fr/","","","Amiens","FR","49.8930001","2.3077496","3.9","17","","Non","","","","facebook: https://www.facebook.com/CemeaPicardie; instagram: https://www.instagram.com/cemeapicardie","0","","Non","https://www.google.com/maps/place/Cem%C3%A9a+de+Picardie/data=!4m7!3m6!1s0x47e7843e3743630d:0x560d148c922202dc!8m2!3d49.8930001!4d2.3077496!16s%2Fg%2F1tpc78wp!19sChIJDWNDNz6E50cR3AIikowUDVY?authuser=0&hl=fr&rclk=1"
"PROMEO Formation Amiens","Centre de formation continue","03 22 54 64 00","","","","http://www.promeo-formation.fr/","74 Rue de Poulainville","","Amiens","FR","49.93227","2.2785634","3.9","79","","Non","","","","facebook: https://www.facebook.com/PromeoFormation; instagram: https://instagram.com/promeo_formation; youtube: https://www.youtube.com/@promeoformation1427","0","","Non","https://www.google.com/maps/place/PROMEO+Formation+Amiens/data=!4m7!3m6!1s0x47e786b679f4da21:0x7d0d8834630415f1!8m2!3d49.93227!4d2.2785634!16s%2Fg%2F11bbw_qzs0!19sChIJIdr0ebaG50cR8RUEYzSIDX0?authuser=0&hl=fr&rclk=1"
"AFEC Amiens","Centre de formation continue","03 22 91 33 85","","","","https://www.afec.fr/centre/hauts-de-france/amiens/","70 Rue des Jacobins","","Amiens","FR","49.8900337","2.3014545","3.8","20","","Non","","","","facebook: https://www.facebook.com/sharer; instagram: https://www.instagram.com/groupe_afec; linkedin: http://www.linkedin.com/company/afec; twitter: https://twitter.com/intent","0","","Non","https://www.google.com/maps/place/AFEC+Amiens/data=!4m7!3m6!1s0x4173461e1b10a87b:0x93081e140d5e4fd3!8m2!3d49.8900337!4d2.3014545!16s%2Fg%2F11b6b9s28t!19sChIJe6gQGx5Gc0ER009eDRQeCJM?authuser=0&hl=fr&rclk=1"
"APRADIS","Centre de formation","03 22 66 33 99","","","","http://www.apradis.eu/","6/12 Rue des 2 Ponts","","Amiens","FR","49.8892973","2.2637491","3.8","78","","Non","","","","","0","","Non","https://www.google.com/maps/place/APRADIS/data=!4m7!3m6!1s0x47e7838c1cb30259:0xda579c32c3c41b52!8m2!3d49.8892973!4d2.2637491!16s%2Fg%2F1wj_slgw!19sChIJWQKzHIyD50cRUhvEwzKcV9o?authuser=0&hl=fr&rclk=1"
"SNCF TP NEN Centre Formations Infrastructure AMIENS","Centre de formation","","","","","","39 Rue Riolan","","Amiens","FR","49.8880976","2.320742","3.7","3","","Non","","","","","0","","Non","https://www.google.com/maps/place/SNCF+TP+NEN+Centre+Formations+Infrastructure+AMIENS/data=!4m7!3m6!1s0x47e785b40408fa5f:0x499f23b1293ace61!8m2!3d49.8880976!4d2.320742!16s%2Fg%2F1hhhnygn8!19sChIJX_oIBLSF50cRYc46KbEjn0k?authuser=0&hl=fr&rclk=1"
"CREFO Amiens","Centre de formation","03 75 14 06 20","","contact@crefo.fr","contact@crefo.fr (contact); admin@crefo.frle (contact); admin@crefo.fr (contact)","https://crefo.fr/","55 Rue de Sully","","Amiens","FR","49.9087833","2.2682205","3.6","14","","Non","","","","facebook: https://www.facebook.com/formationcrefo; instagram: https://www.instagram.com/crefo_formation; linkedin: https://www.linkedin.com/company/crefo","0","","Non","https://www.google.com/maps/place/CREFO+Amiens/data=!4m7!3m6!1s0x47e78598dc0561eb:0x2b7c85eba7f48675!8m2!3d49.9087833!4d2.2682205!16s%2Fg%2F11td9zy9_s!19sChIJ62EF3JiF50cRdYb0p-uFfCs?authuser=0&hl=fr&rclk=1"
"Institut de Formation en Soins Infirmiers (IFSI) du CHU Amiens-Picardie","Centre de formation","03 22 45 59 88","","cardiologie.secretariat@chu-amiens.fr","cardiologie.secretariat@chu-amiens.fr (contact)","https://www.chu-amiens.fr/etudiants/apres-le-bac/ifsi-institut-de-formation-en-soins-infirmiers/","","","Amiens","FR","49.8713775","2.2513665","3.5","29","","Non","","","","facebook: https://www.facebook.com/CHUAmiensPicardie; instagram: https://www.instagram.com/chuamiens; linkedin: https://linkedin.com/company/chu-amiens-picardie; twitter: https://twitter.com/CHUAmiens; youtube: https://www.youtube.com/channel/UCUp7k3NNDR8LWaXaWaP437g","0","","Non","https://www.google.com/maps/place/Institut+de+Formation+en+Soins+Infirmiers+%28IFSI%29+du+CHU+Amiens-Picardie/data=!4m7!3m6!1s0x47e78376f6a4984d:0x35ccfa3b56444a12!8m2!3d49.8713775!4d2.2513665!16s%2Fg%2F11b6z2s6rs!19sChIJTZik9naD50cREkpEVjv6zDU?authuser=0&hl=fr&rclk=1"
"Espace Formation Consulting","Centre de formation continue","03 22 91 48 19","","bdemachy@espaceformationconsulting.com","bdemachy@espaceformationconsulting.com (contact); accueil@espaceformationconsulting.com (contact); compta@espaceformationconsulting.com (contact); accueil@espaceformationconsulting.com.directeur (contact)","http://www.espaceformationconsulting.com/","23 Rue Emile Zola","","Amiens","FR","49.8893804","2.3000274","3.5","19","","Non","","","","","0","","Non","https://www.google.com/maps/place/Espace+Formation+Consulting/data=!4m7!3m6!1s0x47e784618ebdf83d:0x6789845e631092c4!8m2!3d49.8893804!4d2.3000274!16s%2Fg%2F1tfk8b89!19sChIJPfi9jmGE50cRxJIQY16EiWc?authuser=0&hl=fr&rclk=1"
"SJT formation Amiens","Centre d'information","03 75 00 05 85","","","","","","","Amiens","FR","49.8717102","2.2811342","3.4","8","","Non","","","","","0","","Non","https://www.google.com/maps/place/SJT+formation+Amiens/data=!4m7!3m6!1s0x47e7851ee85ea069:0x481a77d95ccdd3ad!8m2!3d49.8717102!4d2.2811342!16s%2Fg%2F11rs9pjbh9!19sChIJaaBe6B6F50cRrdPNXNl3Gkg?authuser=0&hl=fr&rclk=1"
"Transitions Pro Hauts-de-France","Centre de formation continue","03 59 61 62 63","","baroeulcontactlille@transitionspro-hdf.fr","baroeulcontactlille@transitionspro-hdf.fr (contact); amienscontactamiens@transitionspro-hdf.fr (contact); blangycontactarras@transitionspro-hdf.fr (contact); contactlille@transitionspro-hdf.fr (contact); contactamiens@transitionspro-hdf.fr (contact); contactarras@transitionspro-hdf.fr (contact)","https://www.transitionspro-hdf.fr/?utm_source=gmb","516 Rue Saint-Fuscien","","Amiens","FR","49.8677245","2.3050123","3.4","37","","Non","","","","facebook: https://www.facebook.com/Fongecif-Hauts-de-France-407119746055841; linkedin: https://www.linkedin.com/company/fongecif-hauts-de-france; twitter: https://twitter.com/tpro_hdf; youtube: https://www.youtube.com/channel/UCUdMCO4g7ZoizhCrKt42mwQ","0","","Non","https://www.google.com/maps/place/Transitions+Pro+Hauts-de-France/data=!4m7!3m6!1s0x47e78489e1b45db5:0x1954ca76029c99e5!8m2!3d49.8677245!4d2.3050123!16s%2Fg%2F1tg1517s!19sChIJtV204YmE50cR5ZmcAnbKVBk?authuser=0&hl=fr&rclk=1"
"GRETA Somme","Siège social","03 22 33 23 90","","","","https://monavenirpro-hdf.fr/notre-reseau/greta-somme","","","Amiens","FR","49.8724674","2.2942198","3.3","4","","Non","","","","","0","","Non","https://www.google.com/maps/place/GRETA+Somme/data=!4m7!3m6!1s0x47e7845f40000001:0x43bb800a55f34f8d!8m2!3d49.8724674!4d2.2942198!16s%2Fg%2F11hd9rjbhb!19sChIJAQAAQF-E50cRjU_zVQqAu0M?authuser=0&hl=fr&rclk=1"
"Afpa - Centre d'Amiens","Centre de formation","09 72 72 39 36","","","","https://www.afpa.fr/centre/centre-d-amiens?utm_source=gmb&utm_medium=organic&utm_campaign=GMB","30 Rue de Poulainville","","Amiens","FR","49.9274946","2.2737505","3.2","120","","Non","","","","facebook: https://www.facebook.com/AFPA.France; instagram: https://www.instagram.com/afpa_formation; linkedin: https://www.linkedin.com/company/afpa; twitter: https://twitter.com/afpa_formation; youtube: https://www.youtube.com/user/AfpaWebTv","0","","Non","https://www.google.com/maps/place/Afpa+-+Centre+d%27Amiens/data=!4m7!3m6!1s0x47e786b33e3719cf:0x5fca6cfbcc69e662!8m2!3d49.9274946!4d2.2737505!16s%2Fg%2F1wb8t05k!19sChIJzxk3PrOG50cRYuZpzPtsyl8?authuser=0&hl=fr&rclk=1"
"CMA Hauts-de-France - Antenne Formation d'Amiens IREAM","Centre de formation continue","09 72 72 72 07","","resa@cma-hautsdefrance.fr","resa@cma-hautsdefrance.fr (contact); contact@cma-hautsdefrance.fr (contact); jean.dupont@gmail.com (contact)","https://www.cma-hautsdefrance.fr/","33 Rue de Québec","","Amiens","FR","49.8703658","2.330133","3.2","50","","Non","","","","facebook: https://www.facebook.com/cma.hautsdefrance; instagram: https://www.instagram.com/cma.hautsdefrance; linkedin: https://www.linkedin.com/company/cma-hautsdefrance; twitter: https://twitter.com/cma_hdf; youtube: https://www.youtube.com/c/CMAHautsdeFrance","0","","Non","https://www.google.com/maps/place/CMA+Hauts-de-France+-+Antenne+Formation+d%27Amiens+IREAM/data=!4m7!3m6!1s0x47e785099ac5e7f1:0xb2a5a939017aedf2!8m2!3d49.8703658!4d2.330133!16s%2Fg%2F1pp2wzmdz!19sChIJ8efFmgmF50cR8u16ATmppbI?authuser=0&hl=fr&rclk=1"
"IFTLM CHU - AMIENS","Établissement d'enseignement supérieur","03 22 08 87 50","","cardiologie.secretariat@chu-amiens.fr","cardiologie.secretariat@chu-amiens.fr (contact)","https://www.chu-amiens.fr/etudiants/apres-le-bac/iftlm-institut-de-formation-de-techniciens-de-laboratoire-medical/","3 Rue des Louvels","","Amiens","FR","49.8903559","2.2936041","3.2","5","","Non","","","","facebook: https://www.facebook.com/CHUAmiensPicardie; instagram: https://www.instagram.com/chuamiens; linkedin: https://linkedin.com/company/chu-amiens-picardie; twitter: https://twitter.com/CHUAmiens; youtube: https://www.youtube.com/channel/UCUp7k3NNDR8LWaXaWaP437g","0","","Non","https://www.google.com/maps/place/IFTLM+CHU+-+AMIENS/data=!4m7!3m6!1s0x47e7854c92cb5711:0x612be1845069bcd0!8m2!3d49.8903559!4d2.2936041!16s%2Fg%2F11lm2rkbx7!19sChIJEVfLkkyF50cR0LxpUIThK2E?authuser=0&hl=fr&rclk=1"
"Cnam Hauts-de-France - Centre Amiens ( Picardie )","Établissement d'enseignement supérieur","","","","","https://www.cnam-hauts-de-france.fr/","","","Amiens","FR","49.873328","2.26387","3","90","","Non","","","","","0","","Non","https://www.google.com/maps/place/Cnam+Hauts-de-France+-+Centre+Amiens+%28+Picardie+%29/data=!4m7!3m6!1s0x47e7837f7b602d3b:0x1389aa2bfdf083e6!8m2!3d49.873328!4d2.26387!16s%2Fg%2F1vxcvr5l!19sChIJOy1ge3-D50cR5oPw_SuqiRM?authuser=0&hl=fr&rclk=1"
"Service Formation Continue Universitaire","Centre de formation continue","03 22 80 81 39","","mathieu.gautier@u-picardie.fr","mathieu.gautier@u-picardie.fr (contact); nathalie.guingand@u-picardie.fr (contact)","https://www.u-picardie.fr/sfcu/","10 Rue Frédéric Petit","","Amiens","FR","49.8921044","2.2907707","3","4","","Non","","","","facebook: https://www.facebook.com/UPJV.Univ; instagram: https://www.instagram.com/upjv_univ; linkedin: https://www.linkedin.com/school/upjv-univ","0","","Non","https://www.google.com/maps/place/Service+Formation+Continue+Universitaire/data=!4m7!3m6!1s0x47e78381d1efbe3b:0xb385e2bafec2ef9!8m2!3d49.8921044!4d2.2907707!16s%2Fg%2F1hd_mdlk5!19sChIJO77v0YGD50cR-S7sryteOAs?authuser=0&hl=fr&rclk=1"
"Point F","Centre de formation continue","03 22 92 03 53","","","","http://www.pointf.fr/","70 Rue des Jacobins","","Amiens","FR","49.8904882","2.3017981","3","1","","Non","","","","","0","","Non","https://www.google.com/maps/place/Point+F/data=!4m7!3m6!1s0x47e784408d3d54cf:0x8167d256eeaf7124!8m2!3d49.8904882!4d2.3017981!16s%2Fg%2F1vbl6xn2!19sChIJz1Q9jUCE50cRJHGv7lbSZ4E?authuser=0&hl=fr&rclk=1"
"Ecole de Sages-Femmes Michel Vitse","Centre de formation","03 22 53 36 99","","cardiologie.secretariat@chu-amiens.fr","cardiologie.secretariat@chu-amiens.fr (contact)","https://www.chu-amiens.fr/etudiants/apres-las-pass-staps/ecole-sages-femmes-michel-vitse/","3 rue les Rue des Louvels03 22 53 36 99","","Amiens","FR","49.8904087","2.2936395","2.5","2","","Non","","","","facebook: https://www.facebook.com/CHUAmiensPicardie; instagram: https://www.instagram.com/chuamiens; linkedin: https://linkedin.com/company/chu-amiens-picardie; twitter: https://twitter.com/CHUAmiens; youtube: https://www.youtube.com/channel/UCUp7k3NNDR8LWaXaWaP437g","0","","Non","https://www.google.com/maps/place/Ecole+de+Sages-Femmes+Michel+Vitse/data=!4m7!3m6!1s0x47e7845ae54d8267:0xdda4a7a2bf2aed5!8m2!3d49.8904087!4d2.2936395!16s%2Fg%2F1v2d_v4_!19sChIJZ4JN5VqE50cR1a7yK3pK2g0?authuser=0&hl=fr&rclk=1"
"Cap Formation Picardie","Centre de formation continue","03 22 72 47 62","","","","","70 Rue des Jacobins03 22 72 47 62","","Amiens","FR","49.8904947","2.3017689","2.3","4","","Non","","","","","0","","Non","https://www.google.com/maps/place/Cap+Formation+Picardie/data=!4m7!3m6!1s0x47e784464eaf1923:0xc3fec4ef8fc5035c!8m2!3d49.8904947!4d2.3017689!16s%2Fg%2F1tdn_snz!19sChIJIxmvTkaE50cRXAPFj-_E_sM?authuser=0&hl=fr&rclk=1"
"WELCOMA","Centre de formation","06 63 04 97 78","","","","http://welcoma.org/","12 Rue Frédéric Petit06 63 04 97 78","","Amiens","FR","49.8922782","2.2904359","2","1","","Non","","","","","0","","Non","https://www.google.com/maps/place/WELCOMA/data=!4m7!3m6!1s0x47e7846adf9024c3:0x979d092686bdfb45!8m2!3d49.8922782!4d2.2904359!16s%2Fg%2F11c0pjdyt0!19sChIJwySQ32qE50cRRfu9hiYJnZc?authuser=0&hl=fr&rclk=1"
"AFCI Amiens","Centre de formation","03 59 61 22 00","","siteinternetafciformation@afci-formation.fr","siteinternetafciformation@afci-formation.fr (contact); administration@afci-formation.fr (contact); administration@afci-formation.fr.article (contact)","https://www.afci-formation.fr/","","","Amiens","FR","49.8907521","2.3031945","1","2","","Non","","","","facebook: https://www.facebook.com/AFCI-Formation-Continue-180119458375; linkedin: https://www.linkedin.com/company/afci-formation","0","","Non","https://www.google.com/maps/place/AFCI+Amiens/data=!4m7!3m6!1s0x47e7856bb3adaf23:0xa965c86650f924d5!8m2!3d49.8907521!4d2.3031945!16s%2Fg%2F11p73c_q9f!19sChIJI6-ts2uF50cR1ST5UGbIZak?authuser=0&hl=fr&rclk=1"
"ID Formation","Centre d'information","","","","","","15 Rue Pierre l'Hermite","","Amiens","FR","49.8895045","2.3015413","1","1","","Non","","","","","0","","Non","https://www.google.com/maps/place/ID+Formation/data=!4m7!3m6!1s0x47e7850006405793:0x73a06f2e6accfa53!8m2!3d49.8895045!4d2.3015413!16s%2Fg%2F11vs_w3xwm!19sChIJk1dABgCF50cRU_rMai5voHM?authuser=0&hl=fr&rclk=1"