Nom,Type,Téléphone Principal,Tous les Téléphones,Email Principal,Tous les Emails,Site Web,Adresse,Code Postal,Ville,Pays,Latitude,Longitude,Note,Nombre d'avis,Niveau de Prix,Ouvert Maintenant,Description,Services,Commodités,Réseaux Sociaux,Nombre de Photos,Propriétaire,Établissement Vérifié,URL Google Maps
"Raphaële Hennemann","Avocat","02 52 35 22 29","","","","http://hennemann-avocat.fr/","","","Angers","FR","47.4747366","-0.5600747","","0","","Non","","","","","0","","Non","https://www.google.com/maps/place/Rapha%C3%ABle+Hennemann/data=!4m7!3m6!1s0x480878c4f8c9032b:0x75b282a3aaa83553!8m2!3d47.4747366!4d-0.5600747!16s%2Fg%2F11vs7v0pmq!19sChIJKwPJ-MR4CEgRUzWoqqOCsnU?authuser=0&hl=fr&rclk=1"
"Quilichini Guillaume","Avocat","02 41 88 53 01","","","","","10 Rue Chaussée St Pierre02 41 88 53 01","","Angers","FR","47.470969","-0.5530328","","0","","Non","","","","","0","","Non","https://www.google.com/maps/place/Quilichini+Guillaume/data=!4m7!3m6!1s0x480878c1e013facb:0x2be1bcdc856c1292!8m2!3d47.470969!4d-0.5530328!16s%2Fg%2F1txnnvl6!19sChIJy_oT4MF4CEgRkhJshdy84Ss?authuser=0&hl=fr&rclk=1"
"Cabinet d’Avocats Boucheron et Associés","Avocat","02 41 86 11 33","","","","","19 Rue René Rouchy","","Angers","FR","47.479301","-0.5468518","","0","","Non","","","","","0","","Non","https://www.google.com/maps/place/Cabinet+d%E2%80%99Avocats+Boucheron+et+Associ%C3%A9s/data=!4m7!3m6!1s0x480878e5ce78d601:0xd85e2203f81ab1f2!8m2!3d47.479301!4d-0.5468518!16s%2Fg%2F11f17rpjvf!19sChIJAdZ4zuV4CEgR8rEa-AMiXtg?authuser=0&hl=fr&rclk=1"
"Avocat Maître ASFAR Guillaume","Avocat","02 57 54 19 96","","","","https://www.sitipro.com/avocat-angers/asfar-guillaume/","","","Angers","FR","47.4732206","-0.5461104","","0","","Non","","","","","0","","Non","https://www.google.com/maps/place/Avocat+Ma%C3%AEtre+ASFAR+Guillaume/data=!4m7!3m6!1s0x480879898c8c6b6b:0x6f24bece7430413e!8m2!3d47.4732206!4d-0.5461104!16s%2Fg%2F11fcr8jfsl!19sChIJa2uMjIl5CEgRPkEwdM6-JG8?authuser=0&hl=fr&rclk=1"
"Avocat no name","Avocat","02 44 87 22 54","","","","","1 Rue de Buffon02 44 87 22 54","","Angers","FR","47.4764236","-0.5492337","","0","","Non","","","","","0","","Non","https://www.google.com/maps/place/Avocat+no+name/data=!4m7!3m6!1s0x480878e890d00001:0x52883c2f0332818!8m2!3d47.4764236!4d-0.5492337!16s%2Fg%2F11fmddqc33!19sChIJAQDQkOh4CEgRGCgz8MKDKAU?authuser=0&hl=fr&rclk=1"
"Maître Juliette Boré","Avocat","06 59 07 96 69","","","","","","","Angers","FR","47.4782503","-0.5486408","","0","","Non","","","","","0","","Non","https://www.google.com/maps/place/Ma%C3%AEtre+Juliette+Bor%C3%A9/data=!4m7!3m6!1s0x480879c6ee9749d3:0xd82a88dc5341f346!8m2!3d47.4782503!4d-0.5486408!16s%2Fg%2F11ww73bb1q!19sChIJ00mX7sZ5CEgRRvNBU9yIKtg?authuser=0&hl=fr&rclk=1"
"Raimbault Frédéric","Avocat","06 11 82 28 91","","","","http://www.steeringlegal.com/team/frederic-raimbault/","","","Angers","FR","47.474984","-0.5472847","","0","","Non","","","","","0","","Non","https://www.google.com/maps/place/Raimbault+Fr%C3%A9d%C3%A9ric/data=!4m7!3m6!1s0x480878e890be308b:0x40284a11172bd67a!8m2!3d47.474984!4d-0.5472847!16s%2Fg%2F11btlv78l8!19sChIJizC-kOh4CEgRetYrFxFKKEA?authuser=0&hl=fr&rclk=1"
"Percy COAGUILA PITA","Avocat","06 42 04 23 95","","","","","","","Angers","FR","47.4741252","-0.5611991","","0","","Non","","","","","0","","Non","https://www.google.com/maps/place/Percy+COAGUILA+PITA/data=!4m7!3m6!1s0x48087939dc858c97:0x754fffb91af7d7fd!8m2!3d47.4741252!4d-0.5611991!16s%2Fg%2F11x63ncpxr!19sChIJl4yF3Dl5CEgR_df3Grn_T3U?authuser=0&hl=fr&rclk=1"
"Beltrando Avocat","Avocat fiscaliste","02 85 35 96 55","","","","https://www.beltrando-avocat.fr/","23 Rue Chevreul Interphone 5 - 1er étage","","Angers","FR","47.4714612","-0.5494363","5","96","","Non","","","","","0","","Non","https://www.google.com/maps/place/Beltrando+Avocat/data=!4m7!3m6!1s0x480878ebcf08c1b7:0xaf2f7bd181599c45!8m2!3d47.4714612!4d-0.5494363!16s%2Fg%2F11ggbqjq4h!19sChIJt8EIz-t4CEgRRZxZgdF7L68?authuser=0&hl=fr&rclk=1"
"EDDE AVOCAT","Avocat","06 62 58 46 50","","","","http://edde.digital-avocat.fr/?utm_source=gmb","","","Angers","FR","47.4747366","-0.5600747","5","28","","Non","","","","","0","","Non","https://www.google.com/maps/place/EDDE+AVOCAT/data=!4m7!3m6!1s0x4808790cc9917c97:0x3dda629862c7b28d!8m2!3d47.4747366!4d-0.5600747!16s%2Fg%2F11jg_xjnk7!19sChIJl3yRyQx5CEgRjbLHYphi2j0?authuser=0&hl=fr&rclk=1"
"Maître Martin Claire","Avocat","07 70 19 38 53","","","","http://www.claire-martin-avocat.com/?utm_source=gmb","39 bis Rue Dupetit Thouars","","Angers","FR","47.4610694","-0.5521095","5","20","","Non","","","","","0","","Non","https://www.google.com/maps/place/Ma%C3%AEtre+Martin+Claire/data=!4m7!3m6!1s0x48087973d9c3ccf7:0xdb082e5e8b5ba77!8m2!3d47.4610694!4d-0.5521095!16s%2Fg%2F11j0sh342l!19sChIJ98zD2XN5CEgRd7q16OWCsA0?authuser=0&hl=fr&rclk=1"
"Aline Charlès","Avocat","07 67 94 64 19","","","","http://www.aline-charles-avocat.fr/","9 Rue Louis Gain 2ème étage","","Angers","FR","47.4700599","-0.5419063","5","35","","Non","","","","","0","","Non","https://www.google.com/maps/place/Aline+Charl%C3%A8s/data=!4m7!3m6!1s0x480878b8b2c6c8bf:0x42676033862e1eba!8m2!3d47.4700599!4d-0.5419063!16s%2Fg%2F11csb1ysb4!19sChIJv8jGsrh4CEgRuh4uhjNgZ0I?authuser=0&hl=fr&rclk=1"
"Stéphanie Chouquet-Maisonneuve","Avocat spécialisé en droit du travail","02 41 05 69 46","","","","","15 Bis Rue de la Roë","","Angers","FR","47.4732389","-0.5536271","5","11","","Non","","","","","0","","Non","https://www.google.com/maps/place/St%C3%A9phanie+Chouquet-Maisonneuve/data=!4m7!3m6!1s0x480878eafeddc567:0x17ba7515a380cabb!8m2!3d47.4732389!4d-0.5536271!16s%2Fg%2F119wcncxz!19sChIJZ8Xd_up4CEgRu8qAoxV1uhc?authuser=0&hl=fr&rclk=1"
"Maître Françoise De Stoppani","Avocat en droit du travail","02 85 52 10 01","","","","http://actil-avocats.fr/","5 Rue St Blaise","","Angers","FR","47.4696357","-0.5502157","5","11","","Non","","","","","0","","Non","https://www.google.com/maps/place/Ma%C3%AEtre+Fran%C3%A7oise+De+Stoppani/data=!4m7!3m6!1s0x480878be30d9140f:0x3ac2d6370b3764c8!8m2!3d47.4696357!4d-0.5502157!16s%2Fg%2F1vlk0y_p!19sChIJDxTZML54CEgRyGQ3CzfWwjo?authuser=0&hl=fr&rclk=1"
"Henrik de Brier - avocat","Avocat","06 28 27 40 39","","","","https://www.debrier-avocat.com/","","","Angers","FR","47.4739022","-0.5428951","5","14","","Non","","","","","0","","Non","https://www.google.com/maps/place/Henrik+de+Brier+-+avocat/data=!4m7!3m6!1s0x48087968deecdda9:0xc3cb02ce2bac9799!8m2!3d47.4739022!4d-0.5428951!16s%2Fg%2F11kq2bhd39!19sChIJqd3s3mh5CEgRmZesK84Cy8M?authuser=0&hl=fr&rclk=1"
"Maître Dominique BOUCHERON","Avocat spécialisé en droit immobilier","02 41 86 11 33","","","","","19 Rue René Rouchy","","Angers","FR","47.4792936","-0.5468159","5","3","","Non","","","","","0","","Non","https://www.google.com/maps/place/Ma%C3%AEtre+Dominique+BOUCHERON/data=!4m7!3m6!1s0x480878e5ce04d72f:0xaa78d2b8f1c5142a!8m2!3d47.4792936!4d-0.5468159!16s%2Fg%2F1t_tjpb8!19sChIJL9cEzuV4CEgRKhTF8bjSeKo?authuser=0&hl=fr&rclk=1"
"Maître Ludovic BAZIN - Avocat Angers (droit commercial, du travail et de la copropriété)","Avocat","07 82 17 12 93","","","","","77 Rue du Mail","","Angers","FR","47.4727126","-0.5492323","5","9","","Non","","","","","0","","Non","https://www.google.com/maps/place/Ma%C3%AEtre+Ludovic+BAZIN+-+Avocat+Angers+%28droit+commercial,+du+travail+et+de+la+copropri%C3%A9t%C3%A9%29/data=!4m7!3m6!1s0x480879d8ed8a347d:0x129e3de9b566434!8m2!3d47.4727126!4d-0.5492323!16s%2Fg%2F11vjx9d1qq!19sChIJfTSK7dh5CEgRNGRWm97jKQE?authuser=0&hl=fr&rclk=1"
"Manila Chanthalangsy","Avocat","06 43 16 47 25","","","","http://www.mcjb-avocats.fr/","77 Rue du Mail06 43 16 47 25","","Angers","FR","47.4727268","-0.5492192","5","4","","Non","","","","","0","","Non","https://www.google.com/maps/place/Manila+Chanthalangsy/data=!4m7!3m6!1s0x480878ba3a134759:0xd30cc11fc38b1714!8m2!3d47.4727268!4d-0.5492192!16s%2Fg%2F11h2dk14f0!19sChIJWUcTOrp4CEgRFBeLwx_BDNM?authuser=0&hl=fr&rclk=1"
"Maître Rémi HUBERT","Avocat généraliste","02 41 23 10 32","","","","https://www.remi-hubert-avocat.fr/","12 Rue Pierre Lise","","Angers","FR","47.4731302","-0.5440466","5","2","","Non","","","","","0","","Non","https://www.google.com/maps/place/Ma%C3%AEtre+R%C3%A9mi+HUBERT/data=!4m7!3m6!1s0x480edf277c6d07db:0xc958ab7c57b156b2!8m2!3d47.4731302!4d-0.5440466!16s%2Fg%2F11gzs61ff_!19sChIJ2wdtfCffDkgRslaxV3yrWMk?authuser=0&hl=fr&rclk=1"
"Vitae Avocat","Avocat","02 41 05 69 46","","","","","15 bis Rue de la Roë","","Angers","FR","47.4732389","-0.5536271","5","1","","Non","","","","","0","","Non","https://www.google.com/maps/place/Vitae+Avocat/data=!4m7!3m6!1s0x4808791c94597293:0x94b605df102fdd3a!8m2!3d47.4732389!4d-0.5536271!16s%2Fg%2F11rgn15dpl!19sChIJk3JZlBx5CEgROt0vEN8FtpQ?authuser=0&hl=fr&rclk=1"
"Eve-Marie L'HELIAS-ROUSSEAU","Cabinet d'avocats","02 41 88 53 01","","","","https://www.proxim-avocats.com/","","","Angers","FR","47.4689188","-0.550068","5","2","","Non","","","","","0","","Non","https://www.google.com/maps/place/Eve-Marie+L%27HELIAS-ROUSSEAU/data=!4m7!3m6!1s0x48087994243ec7a9:0x5fffa16f8a7f1cdf!8m2!3d47.4689188!4d-0.550068!16s%2Fg%2F11hdglzswv!19sChIJqcc-JJR5CEgR3xx_im-h_18?authuser=0&hl=fr&rclk=1"
"Charvoz Laurence","Avocat","02 41 88 72 72","","","","https://avocat-charvoz.eu/","2 Rue Montauban","","Angers","FR","47.4701847","-0.5505939","5","4","","Non","","","","","0","","Non","https://www.google.com/maps/place/Charvoz+Laurence/data=!4m7!3m6!1s0x480878ea574ed7a7:0x6954a8287edbe5cb!8m2!3d47.4701847!4d-0.5505939!16s%2Fg%2F1thx_5g4!19sChIJp9dOV-p4CEgRy-XbfiioVGk?authuser=0&hl=fr&rclk=1"
"Morgane BOUCHARA","Avocat","06 31 55 79 11","","","","https://morganebouchara-avocat.fr/","3 Rue des Arènes","","Angers","FR","47.4682707","-0.549564","5","7","","Non","","","","","0","","Non","https://www.google.com/maps/place/Morgane+BOUCHARA/data=!4m7!3m6!1s0x4808797946dea481:0xd7e9bc7d1b559d6a!8m2!3d47.4682707!4d-0.549564!16s%2Fg%2F11rd_4ff0l!19sChIJgaTeRnl5CEgRap1VG3286dc?authuser=0&hl=fr&rclk=1"
"Descamps Patrick","Avocat pénaliste","06 18 36 98 38","","","","","16 Rue des 2 Haies","","Angers","FR","47.4713257","-0.5525309","5","5","","Non","","","","","0","","Non","https://www.google.com/maps/place/Descamps+Patrick/data=!4m7!3m6!1s0x480878ea094d9d65:0x1d7f2ac95b4d5cc2!8m2!3d47.4713257!4d-0.5525309!16s%2Fg%2F1tf_mpmt!19sChIJZZ1NCep4CEgRwlxNW8kqfx0?authuser=0&hl=fr&rclk=1"
"AURÉLIEN GOGUET AVOCAT","Avocat","02 41 34 16 50","","","","","","","Angers","FR","47.4701295","-0.5439513","5","7","","Non","","","","","0","","Non","https://www.google.com/maps/place/AUR%C3%89LIEN+GOGUET+AVOCAT/data=!4m7!3m6!1s0x480879285fc7e283:0xebc4a7b8beb8acd5!8m2!3d47.4701295!4d-0.5439513!16s%2Fg%2F11h5mcg3fc!19sChIJg-LHXyh5CEgR1ay4vrinxOs?authuser=0&hl=fr&rclk=1"
"Barret Antoine - Avocat en droit des affaires Angers","Avocat","02 41 19 90 40","","","","https://barret-avocat.com/","29 Rue Louis Gain","","Angers","FR","47.4686711","-0.5378608","5","11","","Non","","","","","0","","Non","https://www.google.com/maps/place/Barret+Antoine+-+Avocat+en+droit+des+affaires+Angers/data=!4m7!3m6!1s0x480878eaff77d8fb:0x2eb52c86d629adef!8m2!3d47.4686711!4d-0.5378608!16s%2Fg%2F1v2gd3xt!19sChIJ-9h3_-p4CEgR760p1oYstS4?authuser=0&hl=fr&rclk=1"
"CABINET AGNES VERNY","Avocat généraliste","06 60 87 15 75","","","","","","","Angers","FR","47.469876","-0.554365","5","8","","Non","","","","","0","","Non","https://www.google.com/maps/place/CABINET+AGNES+VERNY/data=!4m7!3m6!1s0x480879244c73c8d7:0xd17bcb0278de1732!8m2!3d47.469876!4d-0.554365!16s%2Fg%2F11smzkyw5b!19sChIJ18hzTCR5CEgRMhfeeALLe9E?authuser=0&hl=fr&rclk=1"
"TML AVOCAT - Maitre Teddy MARIEL","Avocat en droit du travail","","","","","","77 Rue du Mail","","Angers","FR","47.4727126","-0.5492323","5","3","","Non","","","","","0","","Non","https://www.google.com/maps/place/TML+AVOCAT+-+Maitre+Teddy+MARIEL/data=!4m7!3m6!1s0x480879af63c6fc6b:0xf9909e6305e7a200!8m2!3d47.4727126!4d-0.5492323!16s%2Fg%2F11xcr8mh82!19sChIJa_zGY695CEgRAKLnBWOekPk?authuser=0&hl=fr&rclk=1"
"Me Guerin Isabelle","Avocat","02 41 87 34 65","","","","","75 Rue Larevellière","","Angers","FR","47.471833","-0.5358869","5","12","","Non","","","","","0","","Non","https://www.google.com/maps/place/Me+Guerin+Isabelle/data=!4m7!3m6!1s0x480878f4228f0c9b:0x6bd956865579390f!8m2!3d47.471833!4d-0.5358869!16s%2Fg%2F1v96l5b0!19sChIJmwyPIvR4CEgRDzl5VYZW2Ws?authuser=0&hl=fr&rclk=1"
"BROSSET Marie - Avocat - Droit public - Commande Publique - Fonction publique","Avocat","02 41 31 30 55","","","","https://www.mbrosset-avocat.fr/","","","Angers","FR","47.4692277","-0.5477237","5","3","","Non","","","","","0","","Non","https://www.google.com/maps/place/BROSSET+Marie+-+Avocat+-+Droit+public+-+Commande+Publique+-+Fonction+publique/data=!4m7!3m6!1s0x480879e524383713:0x947529383b34b526!8m2!3d47.4692277!4d-0.5477237!16s%2Fg%2F11trk6psnx!19sChIJEzc4JOV5CEgRJrU0OzgpdZQ?authuser=0&hl=fr&rclk=1"
"Elsa AUDIDIER FICHELSON, Avocat en droit immobilier / droit de la construction à Angers (49)","Avocat","07 89 05 79 98","","","","https://www.eaf-avocat.fr/","","","Angers","FR","47.4701295","-0.5439513","5","4","","Non","","","","","0","","Non","https://www.google.com/maps/place/Elsa+AUDIDIER+FICHELSON,+Avocat+en+droit+immobilier+%2F+droit+de+la+construction+%C3%A0+Angers+%2849%29/data=!4m7!3m6!1s0x480879f04a2fa771:0x92cadef16f362205!8m2!3d47.4701295!4d-0.5439513!16s%2Fg%2F11w3mr01mb!19sChIJcacvSvB5CEgRBSI2b_HeypI?authuser=0&hl=fr&rclk=1"
"FIDUCIAL Sofiral Avocats Angers","Avocat","02 41 91 43 05","","","","http://agences.fiducial.fr/FIDUCIAL-Sofiral-Angers","31 Rue d'Orgemont","","Angers","FR","47.4540648","-0.5459098","5","2","","Non","","","","","0","","Non","https://www.google.com/maps/place/FIDUCIAL+Sofiral+Avocats+Angers/data=!4m7!3m6!1s0x4808789bde5a06d5:0xef1542df5a92668a!8m2!3d47.4540648!4d-0.5459098!16s%2Fg%2F1thf7yyl!19sChIJ1QZa3pt4CEgRimaSWt9CFe8?authuser=0&hl=fr&rclk=1"
"DEGEZ-KERJEAN Avocats","Cabinet d'avocats","02 41 81 31 54","","","","https://www.degez-kerjean.fr/","5 bis Bd du Maréchal Foch02 41 81 31 54","","Angers","FR","47.4692814","-0.5489346","5","1","","Non","","","","","0","","Non","https://www.google.com/maps/place/DEGEZ-KERJEAN+Avocats/data=!4m7!3m6!1s0x480879f2a452e23f:0x46f5c9473c5b1d8d!8m2!3d47.4692814!4d-0.5489346!16s%2Fg%2F11jn37ztg_!19sChIJP-JSpPJ5CEgRjR1bPEfJ9UY?authuser=0&hl=fr&rclk=1"
"CAP AVOCATS","Cabinet d'avocats","02 21 81 26 62","","","","https://www.cap-avocats.fr/","14 bis Rue Louis Gain","","Angers","FR","47.4698964","-0.5428067","5","9","","Non","","","","","0","","Non","https://www.google.com/maps/place/CAP+AVOCATS/data=!4m7!3m6!1s0x480879eb7017b41d:0xcd7ca0e63dfcefe4!8m2!3d47.4698964!4d-0.5428067!16s%2Fg%2F11mdmrqrs7!19sChIJHbQXcOt5CEgR5O_8PeagfM0?authuser=0&hl=fr&rclk=1"
"BROUIN Jean","Avocat spécialisé en droit immobilier","02 41 87 30 62","","","","","9 Rue Grandet","","Angers","FR","47.4701331","-0.5490915","5","5","","Non","","","","","0","","Non","https://www.google.com/maps/place/BROUIN+Jean/data=!4m7!3m6!1s0x480878eba44b4e8f:0xbc3b65f4f6b63c02!8m2!3d47.4701331!4d-0.5490915!16s%2Fg%2F1x6q145k!19sChIJj05LpOt4CEgRAjy29vRlO7w?authuser=0&hl=fr&rclk=1"
"Marie-Astrid SAUZEAU-LIBESSART","Avocat","06 60 66 35 04","","","","https://masl-avocat.fr/","","","Angers","FR","47.4632618","-0.5537197","5","20","","Non","","","","","0","","Non","https://www.google.com/maps/place/Marie-Astrid+SAUZEAU-LIBESSART/data=!4m7!3m6!1s0x480879d2bc9152b1:0x1b52a24051cf5243!8m2!3d47.4632618!4d-0.5537197!16s%2Fg%2F11mbq3g5c0!19sChIJsVKRvNJ5CEgRQ1LPUUCiUhs?authuser=0&hl=fr&rclk=1"
"BO Avocats","Avocat fiscaliste","","","","","https://www.bo-avocats.com/?utm_source=google&utm_medium=wix_google_business_profile&utm_campaign=15433562275864249301","","","Angers","FR","47.4684671","-0.563324","5","2","","Non","","","","","0","","Non","https://www.google.com/maps/place/BO+Avocats/data=!4m7!3m6!1s0x48087992327d1c0f:0xff6c7b31b880dd!8m2!3d47.4684671!4d-0.563324!16s%2Fg%2F11vdkftv35!19sChIJDxx9MpJ5CEgR3YC4MXts_wA?authuser=0&hl=fr&rclk=1"
"Cabinet d'avocats","Avocat","02 41 76 72 19","","","","http://aline-charles-avocat.fr/","1 Rue d'Iéna","","Angers","FR","47.4665922","-0.5576822","5","1","","Non","","","","","0","","Non","https://www.google.com/maps/place/Cabinet+d%27avocats/data=!4m7!3m6!1s0x480878bf4d8eed2f:0x4c0fdabdfab5c6bf!8m2!3d47.4665922!4d-0.5576822!16s%2Fg%2F11c6c8ywnq!19sChIJL-2OTb94CEgRv8a1-r3aD0w?authuser=0&hl=fr&rclk=1"
"Me Léonor Gautier-Péronnet | Droit du Travail","Avocat en droit du travail","02 52 35 26 47","","","","http://lgp-avocat.fr/","","","Angers","FR","47.4701295","-0.5439513","5","21","","Non","","","","","0","","Non","https://www.google.com/maps/place/Me+L%C3%A9onor+Gautier-P%C3%A9ronnet+%7C+Droit+du+Travail/data=!4m7!3m6!1s0x48087942b3a26b5f:0xc603926cfc6a6ce2!8m2!3d47.4701295!4d-0.5439513!16s%2Fg%2F11l2691rtt!19sChIJX2uis0J5CEgR4mxq_GySA8Y?authuser=0&hl=fr&rclk=1"
"Touzet Aurélien","Avocat spécialisé en droit du travail","02 41 25 32 60","","","","http://www.lexcap-avocats.com/","4 Rue du Quinconce","","Angers","FR","47.4698094","-0.5462288","5","1","","Non","","","","","0","","Non","https://www.google.com/maps/place/Touzet+Aur%C3%A9lien/data=!4m7!3m6!1s0x480878ec6056796b:0x919de35c6f78b40f!8m2!3d47.4698094!4d-0.5462288!16s%2Fg%2F11b6q6pgh3!19sChIJa3lWYOx4CEgRD7R4b1zjnZE?authuser=0&hl=fr&rclk=1"
"Avocat Julie Caverne Angers","Avocat","02 41 77 99 72","","","","https://www.julie-caverne-avocat.com/","","","Angers","FR","47.4620845","-0.5538374","5","6","","Non","","","","","0","","Non","https://www.google.com/maps/place/Avocat+Julie+Caverne+Angers/data=!4m7!3m6!1s0x4808795735e23151:0x6ddc0945132e35a4!8m2!3d47.4620845!4d-0.5538374!16s%2Fg%2F11y30dmpyr!19sChIJUTHiNVd5CEgRpDUuE0UJ3G0?authuser=0&hl=fr&rclk=1"
"Cabinet Elisabeth Rouleau","Avocat","07 66 95 85 88","","","","https://elisabeth-rouleau-avocate.fr/","3 Rue des Arènes","","Angers","FR","47.4682707","-0.549564","5","5","","Non","","","","","0","","Non","https://www.google.com/maps/place/Cabinet+Elisabeth+Rouleau/data=!4m7!3m6!1s0x480879d6658d9dc5:0x7a8bbf4ff98788ad!8m2!3d47.4682707!4d-0.549564!16s%2Fg%2F11wj3q_1x1!19sChIJxZ2NZdZ5CEgRrYiH-U-_i3o?authuser=0&hl=fr&rclk=1"
"Claire BESNIER Avocat","Avocat","06 15 77 84 57","","","","http://www.besnier-avocat.fr/","","","Angers","FR","47.4701295","-0.5439513","5","8","","Non","","","","","0","","Non","https://www.google.com/maps/place/Claire+BESNIER+Avocat/data=!4m7!3m6!1s0x4808799dda98f92f:0xd66c4e355f1c57db!8m2!3d47.4701295!4d-0.5439513!16s%2Fg%2F11nxvd1wb5!19sChIJL_mY2p15CEgR21ccXzVObNY?authuser=0&hl=fr&rclk=1"
"AD LITEM Avocats","Avocat","02 41 88 58 37","","","","https://adlitemavocats.fr/","9 Rue Louis Gain","","Angers","FR","47.4700599","-0.5419063","5","7","","Non","","","","","0","","Non","https://www.google.com/maps/place/AD+LITEM+Avocats/data=!4m7!3m6!1s0x480879ba82e98d39:0x1c104dc6a29f06dc!8m2!3d47.4700599!4d-0.5419063!16s%2Fg%2F11kj560t04!19sChIJOY3pgrp5CEgR3AafosZNEBw?authuser=0&hl=fr&rclk=1"
"Maître Juliette Rousse","Avocat","06 83 25 01 44","","","","https://julietterousse-avocat.fr/","3 Rue des Arènes","","Angers","FR","47.4682804","-0.5494958","5","2","","Non","","","","","0","","Non","https://www.google.com/maps/place/Ma%C3%AEtre+Juliette+Rousse/data=!4m7!3m6!1s0x480879c1b2240803:0xe8cc965349c25647!8m2!3d47.4682804!4d-0.5494958!16s%2Fg%2F11x1_1kdn4!19sChIJAwgkssF5CEgRR1bCSVOWzOg?authuser=0&hl=fr&rclk=1"
"Julien Trudelle Avocat","Avocat","02 59 21 08 82","","","","","2 Rue de Bel air","","Angers","FR","47.4641345","-0.5551084","5","3","","Non","","","","","0","","Non","https://www.google.com/maps/place/Julien+Trudelle+Avocat/data=!4m7!3m6!1s0x6b4239aaf3334111:0xbe130158ad8af382!8m2!3d47.4641345!4d-0.5551084!16s%2Fg%2F11kjwlmbwp!19sChIJEUEz86o5QmsRgvOKrVgBE74?authuser=0&hl=fr&rclk=1"
"Vigneron Rosemonde","Avocat","02 41 72 79 61","","","","","9 Rue Louis Gain02 41 72 79 61","","Angers","FR","47.4698307","-0.5418689","5","1","","Non","","","","","0","","Non","https://www.google.com/maps/place/Vigneron+Rosemonde/data=!4m7!3m6!1s0x480878f27e146db3:0x26ec75db0a50f520!8m2!3d47.4698307!4d-0.5418689!16s%2Fg%2F1tcxcl7h!19sChIJs20UfvJ4CEgRIPVQCtt17CY?authuser=0&hl=fr&rclk=1"
"Lovaert Pessardière Sophia","Avocat","02 41 43 42 36","","","","","67 Rue Bressigny02 41 43 42 36","","Angers","FR","47.4667399","-0.5483653","5","2","","Non","","","","","0","","Non","https://www.google.com/maps/place/Lovaert+Pessardi%C3%A8re+Sophia/data=!4m7!3m6!1s0x480878c1dcea1373:0xd0781f311c287be2!8m2!3d47.4667399!4d-0.5483653!16s%2Fg%2F1wrtc7bd!19sChIJcxPq3MF4CEgR4nsoHDEfeNA?authuser=0&hl=fr&rclk=1"
"OCT. ART AVOCAT","Avocat","02 41 27 19 12","","","","https://www.octart-avocats.fr/","55 Rue Desjardins","","Angers","FR","47.466572","-0.5472088","5","1","","Non","","","","","0","","Non","https://www.google.com/maps/place/OCT.+ART+AVOCAT/data=!4m7!3m6!1s0x4808794f85a64b21:0xd89835ea9aeb5305!8m2!3d47.466572!4d-0.5472088!16s%2Fg%2F11rxpvd57x!19sChIJIUumhU95CEgRBVPrmuo1mNg?authuser=0&hl=fr&rclk=1"
"Charline LE BRUN Avocat","Avocat","07 49 33 50 94","","","","","","","Angers","FR","47.4700967","-0.5355037","5","6","","Non","","","","","0","","Non","https://www.google.com/maps/place/Charline+LE+BRUN+Avocat/data=!4m7!3m6!1s0x23aadfdf3e0c0cc5:0xc6ca7afbfef687b1!8m2!3d47.4700967!4d-0.5355037!16s%2Fg%2F11sd9kdhs3!19sChIJxQwMPt_fqiMRsYf2_vt6ysY?authuser=0&hl=fr&rclk=1"
"Aurélien BOUTELOUP Avocat","Services juridiques","07 61 59 01 53","","","","","","","Angers","FR","47.469397","-0.5443476","5","2","","Non","","","","","0","","Non","https://www.google.com/maps/place/Aur%C3%A9lien+BOUTELOUP+Avocat/data=!4m7!3m6!1s0x480879644888688b:0x9d6a0c5fbc504263!8m2!3d47.469397!4d-0.5443476!16s%2Fg%2F11tspwj4b8!19sChIJi2iISGR5CEgRY0JQvF8Map0?authuser=0&hl=fr&rclk=1"
"Crubleau-Cochard Sylvia","Avocat","02 41 25 37 05","","","","","","","Angers","FR","47.4692166","-0.5445572","5","2","","Non","","","","","0","","Non","https://www.google.com/maps/place/Crubleau-Cochard+Sylvia/data=!4m7!3m6!1s0x480878be42193595:0x2f0e9ec628f0f609!8m2!3d47.4692166!4d-0.5445572!16s%2Fg%2F1td75z49!19sChIJlTUZQr54CEgRCfbwKMaeDi8?authuser=0&hl=fr&rclk=1"
"Béguin Antoine","Avocat","02 41 31 20 85","","","","https://www.antoinebeguin.fr/","21 Rue Louis Gain","","Angers","FR","47.4691387","-0.5398625","5","7","","Non","","","","","0","","Non","https://www.google.com/maps/place/B%C3%A9guin+Antoine/data=!4m7!3m6!1s0x480878ea202b72f1:0xe5d0045f017d8c45!8m2!3d47.4691387!4d-0.5398625!16s%2Fg%2F1tdx82fz!19sChIJ8XIrIOp4CEgRRYx9AV8E0OU?authuser=0&hl=fr&rclk=1"
"SCHAUTEN Sigrid","Avocat en droit de l'immigration","02 53 61 65 36","","","","http://www.schauten.fr/","13 Rue Bellefontaine","","Angers","FR","47.4709265","-0.5409773","4.9","63","","Non","","","","","0","","Non","https://www.google.com/maps/place/SCHAUTEN+Sigrid/data=!4m7!3m6!1s0x480878f241d27a1d:0x8801e94a848c2e27!8m2!3d47.4709265!4d-0.5409773!16s%2Fg%2F11d_xl564s!19sChIJHXrSQfJ4CEgRJy6MhErpAYg?authuser=0&hl=fr&rclk=1"
"Maître KADDOURI Hamid","Cabinet d'avocats","02 41 44 03 51","","","","","","","Angers","FR","47.4498021","-0.5397343","4.9","185","","Non","","","","","0","","Non","https://www.google.com/maps/place/Ma%C3%AEtre+KADDOURI+Hamid/data=!4m7!3m6!1s0x480878a8e5c984af:0xd67c3c2ce83adca!8m2!3d47.4498021!4d-0.5397343!16s%2Fg%2F11b6dfxkj4!19sChIJr4TJ5ah4CEgRyq2DzsLDZw0?authuser=0&hl=fr&rclk=1"
"Pradel Avocats","Avocat","02 41 86 04 66","","","","http://pradel.fr/","","","Angers","FR","47.4674516","-0.545316","4.9","63","","Non","","","","","0","","Non","https://www.google.com/maps/place/Pradel+Avocats/data=!4m7!3m6!1s0x480878eccd5ef9e5:0xdd7f64029a44bb9c!8m2!3d47.4674516!4d-0.545316!16s%2Fg%2F1tf5d3nn!19sChIJ5flezex4CEgRnLtEmgJkf90?authuser=0&hl=fr&rclk=1"
"Maître Sonia Maudemain- AVOLUTION- DROIT DE LA FAMILLE-REPARATION PREJUDICE CORPOREL","Avocat","07 64 08 62 09","","","","http://www.avolution.fr/","","","Angers","FR","47.4781197","-0.5486733","4.9","19","","Non","","","","","0","","Non","https://www.google.com/maps/place/Ma%C3%AEtre+Sonia+Maudemain-+AVOLUTION-+DROIT+DE+LA+FAMILLE-REPARATION+PREJUDICE+CORPOREL/data=!4m7!3m6!1s0x4808799922d51571:0x6a496412dcec9dc3!8m2!3d47.4781197!4d-0.5486733!16s%2Fg%2F11jbj3bnh7!19sChIJcRXVIpl5CEgRw53s3BJkSWo?authuser=0&hl=fr&rclk=1"
"Romain BERNIER - Avocat Droit administratif - Droit de l'Urbanisme","Avocat","06 79 44 13 28","","","","https://www.bernier-avocat.com/","","","Angers","FR","47.4685829","-0.5580526","4.9","9","","Non","","","","","0","","Non","https://www.google.com/maps/place/Romain+BERNIER+-+Avocat+Droit+administratif+-+Droit+de+l%27Urbanisme/data=!4m7!3m6!1s0x480878c03066142b:0x72ba0aa0d4bcb0a7!8m2!3d47.4685829!4d-0.5580526!16s%2Fg%2F11bttmqdz4!19sChIJKxRmMMB4CEgRp7C81KAKunI?authuser=0&hl=fr&rclk=1"
"TANGUY Stephane","Avocat","02 41 72 63 82","","","","https://tanguy-avocat-angers.fr/","53 Rue Boisnet","","Angers","FR","47.4739666","-0.5541199","4.8","118","","Non","","","","","0","","Non","https://www.google.com/maps/place/TANGUY+Stephane/data=!4m7!3m6!1s0x480878cecbe0f081:0x92cab3f1900b24a9!8m2!3d47.4739666!4d-0.5541199!16s%2Fg%2F1tfq_tcj!19sChIJgfDgy854CEgRqSQLkPGzypI?authuser=0&hl=fr&rclk=1"
"Laure Klein Avocat | Droit de la fonction publique | Droit public","Avocat","06 95 77 17 58","","","","https://laureklein-avocat.fr/","55 Rue Desjardins","","Angers","FR","47.4667148","-0.5473226","4.8","8","","Non","","","","","0","","Non","https://www.google.com/maps/place/Laure+Klein+Avocat+%7C+Droit+de+la+fonction+publique+%7C+Droit+public/data=!4m7!3m6!1s0x480879ccd49096c7:0x752d1e1da48e3557!8m2!3d47.4667148!4d-0.5473226!16s%2Fg%2F11wqd7nsxh!19sChIJx5aQ1Mx5CEgRVzWOpB0eLXU?authuser=0&hl=fr&rclk=1"
"Avoconseil","Avocat","02 41 25 39 00","","","","https://www.avoconseil.com/","","","Angers","FR","47.4694235","-0.5443454","4.8","46","","Non","","","","","0","","Non","https://www.google.com/maps/place/Avoconseil/data=!4m7!3m6!1s0x480878ed032f2d55:0x9c26be7561f6af65!8m2!3d47.4694235!4d-0.5443454!16s%2Fg%2F11h18r75w!19sChIJVS0vA-14CEgRZa_2YXW-Jpw?authuser=0&hl=fr&rclk=1"
"Maître Maxime Baudin","Avocat spécialisé en droit du travail","06 24 81 62 81","","","","https://www.acr-avocats.com/equipe/maxime-baudin-3/","","","Angers","FR","47.472452","-0.5465785","4.8","40","","Non","","","","","0","","Non","https://www.google.com/maps/place/Ma%C3%AEtre+Maxime+Baudin/data=!4m7!3m6!1s0x480879bcf00ac80d:0x61153b18e02e6d4c!8m2!3d47.472452!4d-0.5465785!16s%2Fg%2F11s8zc5hh5!19sChIJDcgK8Lx5CEgRTG0u4Bg7FWE?authuser=0&hl=fr&rclk=1"
"Cabinet d'avocat LE NOAN","Avocat pénaliste","02 55 42 26 80","","","","https://www.le-noan-avocat.fr/","3 Rue St Blaise","","Angers","FR","47.4696405","-0.5502111","4.8","56","","Non","","","","","0","","Non","https://www.google.com/maps/place/Cabinet+d%27avocat+LE+NOAN/data=!4m7!3m6!1s0x480879cfcbbf551d:0x96cc6c196c085c1b!8m2!3d47.4696405!4d-0.5502111!16s%2Fg%2F11l2cqyxnr!19sChIJHVW_y895CEgRG1wIbBlszJY?authuser=0&hl=fr&rclk=1"
"Maître Elisabeth Poupeau","Avocat en droit du travail","02 41 05 60 95","","","","http://elisabethpoupeau.fr/","15 bis Rue de la Roë","","Angers","FR","47.4732389","-0.5536271","4.8","22","","Non","","","","","0","","Non","https://www.google.com/maps/place/Ma%C3%AEtre+Elisabeth+Poupeau/data=!4m7!3m6!1s0x480878eba44c80d9:0x973ce26dd5aa9add!8m2!3d47.4732389!4d-0.5536271!16s%2Fg%2F11bbwq7gwx!19sChIJ2YBMpOt4CEgR3Zqq1W3iPJc?authuser=0&hl=fr&rclk=1"
"Marc ROUXEL","Avocat","02 59 22 02 20","","","","https://www.consiliumavocats.fr/","","","Angers","FR","47.467442","-0.5565206","4.8","52","","Non","","","","","0","","Non","https://www.google.com/maps/place/Marc+ROUXEL/data=!4m7!3m6!1s0x480878f36af1ee4d:0xb96067ae21fd0db1!8m2!3d47.467442!4d-0.5565206!16s%2Fg%2F11cn5rpg3_!19sChIJTe7xavN4CEgRsQ39Ia5nYLk?authuser=0&hl=fr&rclk=1"
"Taugourdeau Sandrine Avocate en droit public (Administratif - Urbanisme - Fonction publique) et droit du dommage corporel","Avocat en droit administratif","06 27 76 63 20","","","","https://taugourdeau-avocat.fr/","5 bis Av. de Contades","","Angers","FR","47.4639111","-0.5536768","4.7","34","","Non","","","","","0","","Non","https://www.google.com/maps/place/Taugourdeau+Sandrine+Avocate+en+droit+public+%28Administratif+-+Urbanisme+-+Fonction+publique%29+et+droit+du+dommage+corporel/data=!4m7!3m6!1s0x4808796fb7f903dd:0xf18cc27cc1cc5f51!8m2!3d47.4639111!4d-0.5536768!16s%2Fg%2F11n0zyxs3y!19sChIJ3QP5t295CEgRUV_MwXzCjPE?authuser=0&hl=fr&rclk=1"
"ILIRIO LEGAL","Cabinet d'avocats","01 45 57 97 63","","","","http://www.ilirio-legal.com/","","","Angers","FR","47.4694319","-0.5487262","4.7","12","","Non","","","","","0","","Non","https://www.google.com/maps/place/ILIRIO+LEGAL/data=!4m7!3m6!1s0x480878eb0ac002b9:0x747c697125504a89!8m2!3d47.4694319!4d-0.5487262!16s%2Fg%2F1td4jhpv!19sChIJuQLACut4CEgRiUpQJXFpfHQ?authuser=0&hl=fr&rclk=1"
"Charline AMORIN Avocat","Avocat","07 86 00 40 32","","","","http://www.amorin-avocat.fr/","3bis Rue St Blaise 1er Etage","","Angers","FR","47.4697958","-0.5500407","4.7","13","","Non","","","","","0","","Non","https://www.google.com/maps/place/Charline+AMORIN+Avocat/data=!4m7!3m6!1s0xaffe2e1d5d2c2c5b:0xefe2c5140b69606a!8m2!3d47.4697958!4d-0.5500407!16s%2Fg%2F11sgkzmtbq!19sChIJWywsXR0u_q8RamBpCxTF4u8?authuser=0&hl=fr&rclk=1"
"Maître Véronique LEVRARD","Avocat","02 41 87 16 13","","","","https://www.veronique-levrard-avocat.fr/","","","Angers","FR","47.471752","-0.5421672","4.7","11","","Non","","","","","0","","Non","https://www.google.com/maps/place/Ma%C3%AEtre+V%C3%A9ronique+LEVRARD/data=!4m7!3m6!1s0x480878f207abb83b:0x959d8ea409dc98c9!8m2!3d47.471752!4d-0.5421672!16s%2Fg%2F1tjcnv1h!19sChIJO7irB_J4CEgRyZjcCaSOnZU?authuser=0&hl=fr&rclk=1"
"CHRISTOPHE BUFFET cabinet avocats spécialisés droit immobilier et droit public Administratif Urbanisme","Avocat spécialisé en droit immobilier","02 41 81 16 16","","","","https://www.acr-avocats.com/equipe/christophe-buffet/","","","Angers","FR","47.4723784","-0.5465155","4.6","18","","Non","","","","","0","","Non","https://www.google.com/maps/place/CHRISTOPHE+BUFFET+cabinet+avocats+sp%C3%A9cialis%C3%A9s+droit+immobilier+et+droit+public+Administratif+Urbanisme/data=!4m7!3m6!1s0x480878eea0794409:0xcfb3970b3350a58d!8m2!3d47.4723784!4d-0.5465155!16s%2Fg%2F11b6dprdf5!19sChIJCUR5oO54CEgRjaVQMwuXs88?authuser=0&hl=fr&rclk=1"
"SELARL H2C HOUDUSSE BERTHELOT Angers","Avocat spécialisé en droit de la famille","02 41 87 19 06","","","","http://www.h2c-avocats.fr/","9 Rue Louis Gain 2ème étage","","Angers","FR","47.4700599","-0.5419063","4.6","21","","Non","","","","","0","","Non","https://www.google.com/maps/place/SELARL+H2C+HOUDUSSE+BERTHELOT+Angers/data=!4m7!3m6!1s0x480878ec6270d72f:0xba221045ffe76186!8m2!3d47.4700599!4d-0.5419063!16s%2Fg%2F11btlv1v43!19sChIJL9dwYux4CEgRhmHn_0UQIro?authuser=0&hl=fr&rclk=1"
"Maître Flora GASTINEAU - Avocat - Famille - Divorce - Pénal","Avocat","07 68 66 20 46","","","","https://www.floragastineau-avocat.fr/","3 bis Rue St Blaise","","Angers","FR","47.4697447","-0.549999","4.6","11","","Non","","","","","0","","Non","https://www.google.com/maps/place/Ma%C3%AEtre+Flora+GASTINEAU+-+Avocat+-+Famille+-+Divorce+-+P%C3%A9nal/data=!4m7!3m6!1s0x47fcd5cb69192749:0x5940730173c5e51f!8m2!3d47.4697447!4d-0.549999!16s%2Fg%2F11sqk70w4z!19sChIJSScZacvV_EcRH-XFcwFzQFk?authuser=0&hl=fr&rclk=1"
"Orhan Nicolas ODC","Avocat","02 41 23 45 65","","","","http://odc-avocats.fr/","42 Rue Eblé","","Angers","FR","47.4615361","-0.5608662","4.6","83","","Non","","","","","0","","Non","https://www.google.com/maps/place/Orhan+Nicolas+ODC/data=!4m7!3m6!1s0x480878ba3b810691:0xdfb5adda31384a7b!8m2!3d47.4615361!4d-0.5608662!16s%2Fg%2F11by_h3c90!19sChIJkQaBO7p4CEgRe0o4Mdqttd8?authuser=0&hl=fr&rclk=1"
"Cabinet d'avocat Me MPIGA Marie pierre","Avocat en droit administratif","06 50 30 37 27","","","","https://mpiga-avocat.com/","5 bis Rue du Commerce","","Angers","FR","47.4755006","-0.5501781","4.6","19","","Non","","","","","0","","Non","https://www.google.com/maps/place/Cabinet+d%27avocat+Me+MPIGA+Marie+pierre/data=!4m7!3m6!1s0x4f6bbfe6ad0bb755:0x211a6c8ab73f75a0!8m2!3d47.4755006!4d-0.5501781!16s%2Fg%2F11ld2rgs23!19sChIJVbcLrea_a08RoHU_t4psGiE?authuser=0&hl=fr&rclk=1"
"Cabinet d'avocats AVOTHEMIS","Avocat","02 41 87 81 16","","","","https://www.avothemis.com/","7 Rue Constant Lemoine","","Angers","FR","47.4716643","-0.5413486","4.6","139","","Non","","","","","0","","Non","https://www.google.com/maps/place/Cabinet+d%27avocats+AVOTHEMIS/data=!4m7!3m6!1s0x480878f210a7956b:0x28afa6b870c98d5d!8m2!3d47.4716643!4d-0.5413486!16s%2Fg%2F1tm291h5!19sChIJa5WnEPJ4CEgRXY3JcLimryg?authuser=0&hl=fr&rclk=1"
"ECHEZAR AVOCATS","Avocat","06 98 95 49 00","","","","","24 Rue Saint-Aubin","","Angers","FR","47.4692335","-0.5533172","4.6","5","","Non","","","","","0","","Non","https://www.google.com/maps/place/ECHEZAR+AVOCATS/data=!4m7!3m6!1s0x480878c031cc484b:0x4c9dda3799e9209e!8m2!3d47.4692335!4d-0.5533172!16s%2Fg%2F1tjv2x2z!19sChIJS0jMMcB4CEgRniDpmTfanUw?authuser=0&hl=fr&rclk=1"
"Camille de Charette","Avocat","","","","","https://decharette-avocat.fr/a-propos/","9 Rue Grandet","","Angers","FR","47.4701389","-0.5490689","4.5","4","","Non","","","","","0","","Non","https://www.google.com/maps/place/Camille+de+Charette/data=!4m7!3m6!1s0x4808790020ccaea3:0x2491dbe039c971!8m2!3d47.4701389!4d-0.5490689!16s%2Fg%2F11w34xj9c8!19sChIJo67MIAB5CEgRcck54NuRJAA?authuser=0&hl=fr&rclk=1"
"Maître Sophie HUCHON - avocate droit de la famille à Angers","Avocat","06 18 60 25 76","","","","https://sophie-huchon.fr/","3 Rue des Arènes","","Angers","FR","47.4682707","-0.549564","4.5","62","","Non","","","","","0","","Non","https://www.google.com/maps/place/Ma%C3%AEtre+Sophie+HUCHON+-+avocate+droit+de+la+famille+%C3%A0+Angers/data=!4m7!3m6!1s0x480878f25fd1686b:0x921e7e388b93bed2!8m2!3d47.4682707!4d-0.549564!16s%2Fg%2F11bysjvs8f!19sChIJa2jRX_J4CEgR0r6Tizh-HpI?authuser=0&hl=fr&rclk=1"
"SCP SEGUIN et KONRAT","Avocat en droit de l'immigration","02 53 57 70 83","","","","http://www.avocats-sk.com/fr/","15f Rue de Létanduère","","Angers","FR","47.4609565","-0.554457","4.5","26","","Non","","","","","0","","Non","https://www.google.com/maps/place/SCP+SEGUIN+et+KONRAT/data=!4m7!3m6!1s0x480878f27e13db0d:0xf764218de0c2cd7d!8m2!3d47.4609565!4d-0.554457!16s%2Fg%2F11b6d24q17!19sChIJDdsTfvJ4CEgRfc3C4I0hZPc?authuser=0&hl=fr&rclk=1"
"Accens Avocats Conseils","Avocat","02 41 42 48 80","","","","https://accens-avocats.com/","30 Rue du Commerce02 41 42 48 80","","Angers","FR","47.4743295","-0.5489353","4.5","4","","Non","","","","","0","","Non","https://www.google.com/maps/place/Accens+Avocats+Conseils/data=!4m7!3m6!1s0x48087f0921ca9905:0xc122104e18e3dcfa!8m2!3d47.4743295!4d-0.5489353!16s%2Fg%2F1tggsxvx!19sChIJBZnKIQl_CEgR-tzjGE4QIsE?authuser=0&hl=fr&rclk=1"
"RAIMBAULT Catherine","Avocat","02 41 76 55 13","","","","http://www.catherineraimbault.fr/","","","Angers","FR","47.475749","-0.5503237","4.4","30","","Non","","","","","0","","Non","https://www.google.com/maps/place/RAIMBAULT+Catherine/data=!4m7!3m6!1s0x480878e85ee70d5b:0x96954da752de015!8m2!3d47.475749!4d-0.5503237!16s%2Fg%2F11btmb7shg!19sChIJWw3nXuh4CEgRFeAtddpUaQk?authuser=0&hl=fr&rclk=1"
"Naudin Sebastien","Avocat","02 41 87 01 87","","","","http://www.sitipro.com/avocat-angers/naudin-sebastien/","17 Rue Paul Bert","","Angers","FR","47.4658079","-0.5511145","4.4","16","","Non","","","","","0","","Non","https://www.google.com/maps/place/Naudin+Sebastien/data=!4m7!3m6!1s0x480878c1d893bdb1:0xdfc293006546ee3a!8m2!3d47.4658079!4d-0.5511145!16s%2Fg%2F11b6d5djqp!19sChIJsb2T2MF4CEgROu5GZQCTwt8?authuser=0&hl=fr&rclk=1"
"Ouest Défense & Conseils (ODC)","Avocat","","","","","http://odc-avocats.fr/","42 Rue Eblé","","Angers","FR","47.4615361","-0.5608662","4.4","22","","Non","","","","","0","","Non","https://www.google.com/maps/place/Ouest+D%C3%A9fense+%26+Conseils+%28ODC%29/data=!4m7!3m6!1s0x480878ba3a009867:0x171c9db6739ed457!8m2!3d47.4615361!4d-0.5608662!16s%2Fg%2F1td_xzvw!19sChIJZ5gAOrp4CEgRV9Sec7adHBc?authuser=0&hl=fr&rclk=1"
"Maître Flora Nacolis - Avocat Droit Civil Angers","Avocat","02 52 35 20 29","","","","https://www.nacolis-avocat.com/","","","Angers","FR","47.473902","-0.542895","4.4","15","","Non","","","","","0","","Non","https://www.google.com/maps/place/Ma%C3%AEtre+Flora+Nacolis+-+Avocat+Droit+Civil+Angers/data=!4m7!3m6!1s0x48087914e3307671:0xacb9e42fde60202b!8m2!3d47.473902!4d-0.542895!16s%2Fg%2F11fpkm6gfp!19sChIJcXYw4xR5CEgRKyBg3i_kuaw?authuser=0&hl=fr&rclk=1"
"ACR AVOCATS","Avocat","02 41 81 16 16","","","","http://www.acr-avocats.com/","","","Angers","FR","47.4724467","-0.5465449","4.4","50","","Non","","","","","0","","Non","https://www.google.com/maps/place/ACR+AVOCATS/data=!4m7!3m6!1s0x480878ec1e2adf99:0xc4fa6b05d3d63a9!8m2!3d47.4724467!4d-0.5465449!16s%2Fg%2F1tg6v24l!19sChIJmd8qHux4CEgRqWM9XbCmTww?authuser=0&hl=fr&rclk=1"
"Lex Publica","Cabinet d'avocats","02 41 31 30 55","","","","https://www.lexpublica-avocats.fr/","","","Angers","FR","47.469432","-0.5487263","4.3","6","","Non","","","","","0","","Non","https://www.google.com/maps/place/Lex+Publica/data=!4m7!3m6!1s0x480878eb7350930d:0xc0c9540540d45e67!8m2!3d47.469432!4d-0.5487263!16s%2Fg%2F11flqk8dmc!19sChIJDZNQc-t4CEgRZ17UQAVUycA?authuser=0&hl=fr&rclk=1"
"TGS France Avocats Angers | Avocats droit des affaires","Avocat","02 41 66 25 15","","","","https://www.tgs-avocats.fr/cabinets/avocats-droit-des-affaires-angers?utm_source=MAPS&utm_medium=organic&utm_campaign=Google_local_business","18 Rue Bouche Thomas","","Angers","FR","47.4420579","-0.547517","4.3","4","","Non","","","","","0","","Non","https://www.google.com/maps/place/TGS+France+Avocats+Angers+%7C+Avocats+droit+des+affaires/data=!4m7!3m6!1s0x4807d621091ad183:0xc3ac8caa206ac840!8m2!3d47.4420579!4d-0.547517!16s%2Fg%2F1tj2h874!19sChIJg9EaCSHWB0gRQMhqIKqMrMM?authuser=0&hl=fr&rclk=1"
"SELARL Nathalie Rouxel - Chevrollier","Avocat","02 41 72 76 19","","","","https://www.nrc-avocats.fr/","1 Rue d'Iéna","","Angers","FR","47.4666197","-0.5575204","4.3","17","","Non","","","","","0","","Non","https://www.google.com/maps/place/SELARL+Nathalie+Rouxel+-+Chevrollier/data=!4m7!3m6!1s0x480878b8b2c529a3:0xead986b5d8843675!8m2!3d47.4666197!4d-0.5575204!16s%2Fg%2F1vqtg57h!19sChIJoynFsrh4CEgRdTaE2LWG2eo?authuser=0&hl=fr&rclk=1"
"Cabinet GRISILLON, Avocat à Angers","Avocat","02 72 47 03 50","","","","http://www.cabinet-grisillon.fr/","7 Rue St Blaise","","Angers","FR","47.469552","-0.5501809","4.3","23","","Non","","","","","0","","Non","https://www.google.com/maps/place/Cabinet+GRISILLON,+Avocat+%C3%A0+Angers/data=!4m7!3m6!1s0x480879fc962c0f77:0x4d4e588d11d0b71b!8m2!3d47.469552!4d-0.5501809!16s%2Fg%2F11gxrnyxhn!19sChIJdw8slvx5CEgRG7fQEY1YTk0?authuser=0&hl=fr&rclk=1"
"Maître Flore GRAINDORGE","Avocat","02 52 35 07 48","","","","http://avocat-graindorge.com/","","","Angers","FR","47.4781197","-0.5486733","4.3","27","","Non","","","","","0","","Non","https://www.google.com/maps/place/Ma%C3%AEtre+Flore+GRAINDORGE/data=!4m7!3m6!1s0x480878ebe06dd6a3:0x2fc6550cb753cfdb!8m2!3d47.4781197!4d-0.5486733!16s%2Fg%2F11dxjlpyjf!19sChIJo9Zt4Ot4CEgR289TtwxVxi8?authuser=0&hl=fr&rclk=1"
"Emilie MOREAU AVOCAT","Avocat","06 52 57 03 84","","","","http://emiliemoreauavocat.fr/","","","Angers","FR","47.4739986","-0.5611023","4.3","12","","Non","","","","","0","","Non","https://www.google.com/maps/place/Emilie+MOREAU+AVOCAT/data=!4m7!3m6!1s0x480878d0674596d9:0xb47e6c50de0816e5!8m2!3d47.4739986!4d-0.5611023!16s%2Fg%2F11cn0pcr2x!19sChIJ2ZZFZ9B4CEgR5RYI3lBsfrQ?authuser=0&hl=fr&rclk=1"
"LEXCAP","Avocat","02 41 25 32 60","","","","http://www.lexcap-avocats.com/","4 Rue du Quinconce","","Angers","FR","47.4697898","-0.5462934","4.3","36","","Non","","","","","0","","Non","https://www.google.com/maps/place/LEXCAP/data=!4m7!3m6!1s0x480878ec61059d07:0xbb513b2498887d01!8m2!3d47.4697898!4d-0.5462934!16s%2Fg%2F1td5fhkx!19sChIJB50FYex4CEgRAX2ImCQ7Ubs?authuser=0&hl=fr&rclk=1"
"Cabinet d'Avocat Notte-Forzy","Avocat","02 41 88 00 69","","","","https://notte-forzy-avocat.fr/","53 Rue Boisnet","","Angers","FR","47.4739666","-0.5541199","4.2","5","","Non","","","","","0","","Non","https://www.google.com/maps/place/Cabinet+d%27Avocat+Notte-Forzy/data=!4m7!3m6!1s0x480878eafedbfb75:0xf9c7bd01ef9457ea!8m2!3d47.4739666!4d-0.5541199!16s%2Fg%2F11btl_r46t!19sChIJdfvb_up4CEgR6leU7wG9x_k?authuser=0&hl=fr&rclk=1"
"DAVID Cyrielle","Avocat","02 41 96 00 86","","","","http://www.davidavocat.fr/","16 Rue Cordelle","","Angers","FR","47.471528","-0.5514897","4.2","5","","Non","","","","","0","","Non","https://www.google.com/maps/place/DAVID+Cyrielle/data=!4m7!3m6!1s0x480879b895837579:0x62a096ce8808dc65!8m2!3d47.471528!4d-0.5514897!16s%2Fg%2F11h9l58l4h!19sChIJeXWDlbh5CEgRZdwIiM6WoGI?authuser=0&hl=fr&rclk=1"
"Ablc Avocats Associes","Avocat","02 41 77 99 72","","","","","","","Angers","FR","47.4620857","-0.5541909","4.2","11","","Non","","","","","0","","Non","https://www.google.com/maps/place/Ablc+Avocats+Associes/data=!4m7!3m6!1s0x480878be6a6684af:0x25b55af074ca8ea2!8m2!3d47.4620857!4d-0.5541909!16s%2Fg%2F11b6dfybv7!19sChIJr4Rmar54CEgRoo7KdPBatSU?authuser=0&hl=fr&rclk=1"
"Oratio Avocats | Cabinet d'avocat à Angers","Cabinet d'avocats","02 41 66 62 80","","","","https://www.oratio-avocats.com/cabinets-d-avocats-en-france/angers?utm_source=google&utm_medium=google_my_business&utm_campaign=google_my_business_angers","5 rue Rue Papiau de la Verrie","","Angers","FR","47.444515","-0.5435648","4.1","16","","Non","","","","","0","","Non","https://www.google.com/maps/place/Oratio+Avocats+%7C+Cabinet+d%27avocat+%C3%A0+Angers/data=!4m7!3m6!1s0x4807d62076b23ba3:0x6946595420f6a5e6!8m2!3d47.444515!4d-0.5435648!16s%2Fg%2F1thsf9bs!19sChIJozuydiDWB0gR5qX2IFRZRmk?authuser=0&hl=fr&rclk=1"
"HAUT ANJOU AVOCATS","Cabinet d'avocats","02 41 94 43 90","","","","http://www.haut-anjou-avocats.fr/","16 bis Rue Louis Gain","","Angers","FR","47.4698571","-0.542691","4","7","","Non","","","","","0","","Non","https://www.google.com/maps/place/HAUT+ANJOU+AVOCATS/data=!4m7!3m6!1s0x480878ee95daaaab:0x661e8c3bbbded400!8m2!3d47.4698571!4d-0.542691!16s%2Fg%2F11dynykj28!19sChIJq6rale54CEgRANTeuzuMHmY?authuser=0&hl=fr&rclk=1"
"Cabinet d'Avocats Oger-Ombredane Tavenard","Avocat","02 41 86 04 06","","","","http://www.avocat-oger-ombredane-tavenard.fr/","6 Rue St Blaise","","Angers","FR","47.4698641","-0.5502384","3.9","12","","Non","","","","","0","","Non","https://www.google.com/maps/place/Cabinet+d%27Avocats+Oger-Ombredane+Tavenard/data=!4m7!3m6!1s0x48087f090f75eb71:0x465757369da949e0!8m2!3d47.4698641!4d-0.5502384!16s%2Fg%2F11b6dpzzrv!19sChIJcet1Dwl_CEgR4EmpnTZXV0Y?authuser=0&hl=fr&rclk=1"
"LBR Avocats","Avocat","02 41 34 44 74","","","","https://lbr-avocats.fr/","","","Angers","FR","47.4732206","-0.5461104","3.7","6","","Non","","","","","0","","Non","https://www.google.com/maps/place/LBR+Avocats/data=!4m7!3m6!1s0x480879d350a2dd0b:0xf81ce3eb94e83eb0!8m2!3d47.4732206!4d-0.5461104!16s%2Fg%2F11knb25s_0!19sChIJC92iUNN5CEgRsD7olOvjHPg?authuser=0&hl=fr&rclk=1"
"Pasquini Monika","Avocat généraliste","02 41 32 87 72","","","","","2 Rue Chaperonnière02 41 32 87 72","","Angers","FR","47.470664","-0.5534202","3.6","8","","Non","","","","","0","","Non","https://www.google.com/maps/place/Pasquini+Monika/data=!4m7!3m6!1s0x480878c1c36281f5:0x5d1b5f07b393f56!8m2!3d47.470664!4d-0.5534202!16s%2Fg%2F11b6d24d55!19sChIJ9YFiw8F4CEgRVj85e_C10QU?authuser=0&hl=fr&rclk=1"
"PROXIM AVOCATS","Avocat","02 41 88 53 01","","","","http://www.proxim-avocats.com/","","","Angers","FR","47.4689188","-0.550068","3.6","5","","Non","","","","","0","","Non","https://www.google.com/maps/place/PROXIM+AVOCATS/data=!4m7!3m6!1s0x480878c1e013facb:0xc62f8517f4532b3b!8m2!3d47.4689188!4d-0.550068!16s%2Fg%2F1tfrwwmr!19sChIJy_oT4MF4CEgROytT9BeFL8Y?authuser=0&hl=fr&rclk=1"
"Cabinet Patrick Barret et associés","Cabinet d'avocats","02 41 88 58 37","","","","http://www.barret-associes.fr/","9 Rue Louis Gain","","Angers","FR","47.4698307","-0.5418689","3.5","11","","Non","","","","","0","","Non","https://www.google.com/maps/place/Cabinet+Patrick+Barret+et+associ%C3%A9s/data=!4m7!3m6!1s0x480878f27e146db3:0xf7533d67c934021f!8m2!3d47.4698307!4d-0.5418689!16s%2Fg%2F1tdmpfjb!19sChIJs20UfvJ4CEgRHwI0yWc9U_c?authuser=0&hl=fr&rclk=1"
"Cappato-Gaudré Selarl d'Avocats","Avocat","02 41 87 11 90","","","","https://www.avocats-cappato-gaudre-rouleau.fr/","67 Rue Larevellière","","Angers","FR","47.4719601","-0.537167","3.5","14","","Non","","","","","0","","Non","https://www.google.com/maps/place/Cappato-Gaudr%C3%A9+Selarl+d%27Avocats/data=!4m7!3m6!1s0x480878f41ae8a96b:0x17ff9fbdacb8825f!8m2!3d47.4719601!4d-0.537167!16s%2Fg%2F1td6fw73!19sChIJa6noGvR4CEgRX4K4rL2f_xc?authuser=0&hl=fr&rclk=1"
"Vallée Corinne","Avocat","02 41 31 20 85","","","","https://www.corinnevallee.fr/","21 Rue Louis Gain","","Angers","FR","47.4691387","-0.5398625","3.5","25","","Non","","","","","0","","Non","https://www.google.com/maps/place/Vall%C3%A9e+Corinne/data=!4m7!3m6!1s0x480878f27fe27843:0x65ab3c7438cef89!8m2!3d47.4691387!4d-0.5398625!16s%2Fg%2F1tgf2lxh!19sChIJQ3jif_J4CEgRie-MQ8ezWgY?authuser=0&hl=fr&rclk=1"
"Berahya-Lazarus Gérard","Avocat","02 41 20 10 80","","","","https://www.berahya-lazarus-gerard-avocat.fr/","","","Angers","FR","47.4619789","-0.5538434","3.4","19","","Non","","","","","0","","Non","https://www.google.com/maps/place/Berahya-Lazarus+G%C3%A9rard/data=!4m7!3m6!1s0x480878bdde24b249:0x2ea12273ae97d9aa!8m2!3d47.4619789!4d-0.5538434!16s%2Fg%2F1tdkx1k0!19sChIJSbIk3r14CEgRqtmXrnMioS4?authuser=0&hl=fr&rclk=1"
"Boizard Guillaume","Avocat","02 41 23 10 32","","","","","12 Rue Pierre Lise","","Angers","FR","47.4731302","-0.5440466","3.4","5","","Non","","","","","0","","Non","https://www.google.com/maps/place/Boizard+Guillaume/data=!4m7!3m6!1s0x480878ee0f7411d9:0x7820913b26fe6ba4!8m2!3d47.4731302!4d-0.5440466!16s%2Fg%2F11df6vk7xv!19sChIJ2RF0D-54CEgRpGv-JjuRIHg?authuser=0&hl=fr&rclk=1"
"SCP Lagouche","Avocat","02 41 34 44 74","","","","","","","Angers","FR","47.4721097","-0.5451534","3.3","8","","Non","","","","","0","","Non","https://www.google.com/maps/place/SCP+Lagouche/data=!4m7!3m6!1s0x480878ec2bb4df75:0x233e83a4cdfb8e35!8m2!3d47.4721097!4d-0.5451534!16s%2Fg%2F11cmr2t7pm!19sChIJdd-0K-x4CEgRNY77zaSDPiM?authuser=0&hl=fr&rclk=1"
"Antarius Avocats SELARL","Avocat","02 41 09 30 09","","","","http://www.antarius-avocats.com/","","","Angers","FR","47.4665419","-0.5524796","3.3","6","","Non","","","","","0","","Non","https://www.google.com/maps/place/Antarius+Avocats+SELARL/data=!4m7!3m6!1s0x4808789559297951:0xc696e4d7c5f4f194!8m2!3d47.4665419!4d-0.5524796!16s%2Fg%2F11c1x2lnz9!19sChIJUXkpWZV4CEgRlPH0xdfklsY?authuser=0&hl=fr&rclk=1"
"Lamy-Rabu Anne-Pascale","Avocat","02 41 31 20 85","","","","http://www.avocat-lamy-rabu.com/","21 Rue Louis Gain02 41 31 20 85","","Angers","FR","47.4691387","-0.5398625","3.1","16","","Non","","","","","0","","Non","https://www.google.com/maps/place/Lamy-Rabu+Anne-Pascale/data=!4m7!3m6!1s0x480878f27fe27843:0xc88081901ff7c0a5!8m2!3d47.4691387!4d-0.5398625!16s%2Fg%2F1vm_x7_s!19sChIJQ3jif_J4CEgRpcD3H5CBgMg?authuser=0&hl=fr&rclk=1"
"Cabinet DUFOURGBURG Avocat","Avocat spécialisé dans les divorces","02 41 60 57 57","","","","","29 Rue Louis Gain02 41 60 57 57","","Angers","FR","47.4692774","-0.5428818","3","2","","Non","","","","","0","","Non","https://www.google.com/maps/place/Cabinet+DUFOURGBURG+Avocat/data=!4m7!3m6!1s0x480878ed7abb7e39:0x26ca0fa0621aa60b!8m2!3d47.4692774!4d-0.5428818!16s%2Fg%2F1tzgj01s!19sChIJOX67eu14CEgRC6YaYqAPyiY?authuser=0&hl=fr&rclk=1"
"Elisabeth Gohier","Avocat","02 41 77 05 50","","","","","80 Rue du Mail02 41 77 05 50","","Angers","FR","47.4723226","-0.548892","2.8","16","","Non","","","","","0","","Non","https://www.google.com/maps/place/Elisabeth+Gohier/data=!4m7!3m6!1s0x480878e96040a2b7:0x15f1e2e1f8bf52cf!8m2!3d47.4723226!4d-0.548892!16s%2Fg%2F11h2dk5frw!19sChIJt6JAYOl4CEgRz1K_-OHi8RU?authuser=0&hl=fr&rclk=1"
"Bouillaud Jean-Noël","Avocat","02 41 18 01 25","","","","http://jnb-angers.avocat.fr/","","","Angers","FR","47.471752","-0.542167","2.7","14","","Non","","","","","0","","Non","https://www.google.com/maps/place/Bouillaud+Jean-No%C3%ABl/data=!4m7!3m6!1s0x480878f207abb83b:0xde1b9918bf3b5a12!8m2!3d47.471752!4d-0.542167!16s%2Fg%2F1vxfzk23!19sChIJO7irB_J4CEgRElo7vxiZG94?authuser=0&hl=fr&rclk=1"
"Barreau d'Angers","Avocat","02 41 25 30 70","","","","https://barreau-angers.org/","","","Angers","FR","47.4714725","-0.5430193","1","1","","Non","","","","","0","","Non","https://www.google.com/maps/place/Barreau+d%27Angers/data=!4m7!3m6!1s0x480878ed9d2cf7eb:0xdcb6344e46032432!8m2!3d47.4714725!4d-0.5430193!16s%2Fg%2F11b6dl26f3!19sChIJ6_csne14CEgRMiQDRk40ttw?authuser=0&hl=fr&rclk=1"